id;address;coordinate;description;title;category_id;url;latitude;longitude
0;Нижний Новгород, Нижне-Волжская набережная;POINT (44.003277 56.331576);Памятник Петру 1 открыт 24 сентября 2014 года. Он установлен напротив Зачатьевской башни Нижегородского кремля. Авторы работы — известные нижегородские скульпторы Алексей Щитов и архитектор Сергей Шорохов. Высота бронзовой статуи — 3, 7 метра, гранитного постамента — 3 метра. Памятник Петру 1 представлен в виде стоящей фигуры императора. Он стоит спиной к Кремлю, его взгляд устремлен на широкие волжские просторы. Левая рука царя откинута назад, а в правой он держит свое постановление 1714 года: «Нижегородской губернии быть особо». Скульптура установлена в память о посещении Нижнего Новгорода царской особой. Первый раз Петр1 заезжал в город в 1695 году по пути в Азов. Он разместился в доме, сегодня известном как «Домик Петра». Второй раз император приезжал в город в 1722 году при походе на Персию. Он приказал построить верфь, для создания кораблей нового типа, а также отметил 30 мая свой 50-летний юбилей.;Памятник Петру 1;1;;56.331576;44.003277
1;Нижний Новгород, Суетинская улица;POINT (43.983546 56.32448);Памятник великому русскому писателю Максиму Горькому установлен на набережной Федоровского. Бронзовый монумент выполнен в виде фигуры писателя, сидящего на камне и опирающегося на свою любимую трость. Писатель выглядит задумчивым, он словно любуется раскинувшимся перед ним прекрасным пейзажем на слиянии двух великих рек Оки и Волги и размышляет о судьбе русского народа. Памятника выполнил в 1957 году скульптор Иван Шмагун. Монумент несколько раз менял место своего расположения. Более 10 лет он провел в Зеленом городе перед Домом учителя. На набережную Федоровского он переехал лишь в 1972 году.;Памятник Максиму Горькому;1;;56.32448;43.983546
2;Нижний Новгород, Окская набережная;POINT (43.97481 56.335607);Две реплики Шуховской башни находятся на территории Стрелки недалеко от Пакгаузов. Высокие металлические конструкции являются копиями уникального сооружения инженера Владимира Шухов, установленного под Дзержинском на левом берегу Оке. Оригинальная Шуховская башня — гиперболоидная многосекционная опора линии электропередачи, выполненная в виде несущей сетчатой оболочки. На данный момент В Нижегородской области осталась одна из шести конструкций. Второй гиперболоид — Шуховская телебашня на Шаболовке в Москве. Шуховская башня на Оке построена через семь лет после башни на Шаболовке и признаётся специалистами более совершенной.;Имитация Шуховских башен;1;;56.335607;43.97481
3;Нижний Новгород, площадь Максима Горького;POINT (43.990747 56.313472);Памятник Максиму Горькому в Нижнем Новгороде, находящийся в сквере на площади Горького, был открыт 2 ноября 1952 года. Семиметровая бронзовая фигура Горького создана скульптором В. И. Мухиной, архитектурное решение принадлежит В. В. Лебедеву и П. П. Штеллеру. Скульптура отлита на Ленинградском заводе «Монументскульптура». Фигура Горького, высоко поднятая над площадью, установлена на четырехгранном постаменте, словно «вырастающем» из гранитной скалы. Вера Мухина создала образ молодого Горького в период его жизни в родном Нижнем Новгороде, именно в этот период он пишет знаменитую «Песню о Буревестнике».;Памятник Максиму Горькому;1;;56.313472;43.990747
4;Нижний Новгород, Большая Покровская улица;POINT (44.002696 56.324157);Памятник Козе-Дерезе (другое название — «веселая коза») появился на Большой Покровской в 2005 году, в то же время, что и другие скульптуры, изображающих жителей Нижнего Новгорода конца XIX века. Располагается это смешное и забавное изваяние на Театральной площади, и отнюдь не случайно — именно здесь с 1993 года проводится всероссийский фестиваль, эмблемой которого и является «веселая коза».;Памятник Козе-Дерезе;1;;56.324157;44.002696
5;Нижний Новгород, Большая Покровская улица;POINT (43.994177 56.316436);Памятник Почтальону входит в серию скульптур, изображающих жителей Нижнего Новгорода конца XIX века. Установлен 10 сентября 2006 года и находится в самом конце пешеходной зоны по улице Большая Покровская. Местоположение памятника не случайно - он стоит в непосредственной близости от главного почтамта, где много лет назад находился ямской двор, являвшийся предшественником государственной почты.;Памятник Почтальону;1;;56.316436;43.994177
6;Нижний Новгород, Большая Покровская улица;POINT (44.001879 56.32377);На Большой Покровской улице в Нижнем Новгороде на самой обычной лавочке скромно сидит неприметный человек, как будто только что вышедший из Нижегородского драматического театра и присевший на скамейку отдохнуть. Тем не менее, имя этого человека известно всем в нашей стране — это памятник великому актеру Евгению Александровичу Евстигнееву. Как это часто бывает, и место, и время установки памятника не случайны. Он был торжественно открыт в сентябре 2006 года ко дню 80-летия артиста, в городе, где он родился, окончил театральное училище и начал сценическую карьеру. Автор памятника — скульптор Владимир Полянский.;Памятник Евгению Евстигнееву;1;;56.32377;44.001879
7;Нижний Новгород, Рождественская улица;POINT (43.99687 56.329867);Проект памятника Минину и Пожарскому был разработан еще в начале XIX века И. П. Мартосом, был объявлен сбор средств, но, когда набралась необходимая сумма, Комитет министров неожиданно принял решение установить этот памятник в Москве перед храмом Василия Блаженного, в Нижнем Новгороде же вместо этого был установлен обелиск. Историческая справедливость была восстановлена спустя почти два века – по инициативе московского мэра Лужкова скульптор Зураб Церетели создал точную уменьшенную копию этого памятника.;Памятник Минину и Пожарскому;1;;56.329867;43.99687
8;Нижний Новгород, Канавинский район;POINT (43.94595 56.311066);Рядом с Дворцом культуры железнодорожников находится необычный памятник — памятник бронепоезду «Козьма Минин». Судьба железной дороги тесно связана с судьбой страны. В годы Великой Отечественной войны, когда враг стоял у ворот Москвы, рабочие Горьковской железной дороги на собранные средства, в свободное от основной работы время трудятся над бронепоездом. И, вспомнив в трудную минуту о «спасителе Отечества», дают ему имя «Козьма Минин».;Памятник бронепоезду «Козьма Минин»;1;;56.311066;43.94595
9;г. Нижний Новгород, станция метро «Заречная»;POINT (43.927694 56.284257);Авторы мозаики — Татьяна и Валерий Гришины. Была создана в 1985 году. Входит в реестр произведений советского монументально-декоративного искусства Нижегородской области;Керамическое панно «Град Китеж»;10;;56.284257;43.927694
10;Нижний Новгород, улица Стрелка;POINT (43.972417 56.333265);Торжественное открытие памятника состоялось в августе 2021 года в преддверии празднования 800-ти летия города. Место установки и эскиз монумента выбирали сами нижегородцы — в голосовании приняли участие почти 10 тысяч человек. Это первый конный памятник в Нижнем Новгороде. Его общая высота составляет 13 метров, а высота самой скульптуры — шесть метров. Монумент выполнен по эскизу команды специалистов под руководством скульптора, народного художника РФ Андрея Ковальчука.;Памятник Александру Невскому;1;;56.333265;43.972417
11;Нижний Новгород, историческая территория Старый Нижний Новгород;POINT (44.012111 56.332166);Серебристый олень расположен недалеко от катера «Герой». Этот блестящий красавец установлен в знак дружбы российского и венгерского народов в 2014 году и является подарком города-побратима Дьёр. Скульптура оленя — работа венгерского скульптора Габора Миклоша Жоке, она выполнена в оригинальной технике из металлических пластинок, ее высота — 5 метров. Олень для Нижнего Новгорода — особый символ, он изображен на гербе города.;Олень;1;;56.332166;44.012111
12;Нижний Новгород, площадь Минина и Пожарского;POINT (44.006836 56.326786);Памятник русскому национальному герою, который, обладая огромной энергией и ораторским даром, организовал сбор средств у сограждан на борьбу за освобождение Родины и стал одним из руководителей Земского ополчения 1611-1612 годов в период борьбы русского народа против польской интервенции, гражданину Кузьме Минину установлен на площади Минина и Пожарского напротив Дмитровской башни Нижегородского кремля. Монумент был торжественно открыт 7 ноября 1943 года на переименованной в честь данного события площади Минина и Пожарского и стал первым памятником военных лет.;Памятник Козьме Минину;1;;56.326786;44.006836
13;Нижний Новгород, Александровский сад;POINT (44.010941 56.330232);Александровский сад – это парк культуры и отдыха в историческом центре Нижнего Новгорода. Он расположен на склоне реки Волги между Верхне-Волжской и Нижне-Волжской набережными и является памятником архитектуры областного значения. Это удивительно красивый парк в английском стиле, главная концепция которого — стремление к природности и естественности композиции. Его площадь — около 35 гектаров. Сад был основан в 1835 году по поручению императора Николая 1 и назван в честь его супруги Александры Федоровны. До 19 века на его месте располагались жилые дома и церкви Панской слободы. По указу царя все здания снесли и началась масштабная стройка: укрепляли склон, выравнивали территорию, формировали дорожки аллей, высаживали деревья, по верхней линии набережной строили дома и дорогу. Стилистику нового парка разрабатывал придворный садовник Карл Петцольд. Императорский парк стал излюбленным местом отдыха горожан и первым общественным парком в истории Нижнего Новгорода. Здесь проходили концерты, выступали фокусники и акробаты, русские и цыганские песенники. За появление в городе этого необычного парка мы должны поблагодарить Николая I, который распорядился разбить его на Откосе, на том самом месте, где прежде горожане устроили свалку бытовых отходов. Именно там император, согласно преданию, прикрыв нос надушенным платком (так как от свалки исходило невыносимое зловоние), заметил, что в Нижнем Новгороде природа сделала все, чтобы город украсить, горожане — все, чтобы его испортить. Когда он отдал приказание разбить здесь парк, кто-то из свиты дерзнул возразить самодержцу. Неразумно устраивать парк на такой крутизне — мол, нижегородцы — люди равнинные, по горам гулять не приучены. На это император коротко и сухо ответил: «Пускай научатся».;Александровский сад;2;;56.330232;44.010941
14;Нижний Новгород, парк Швейцария;POINT (43.979263 56.282221);Парк «Швейцария» — один из крупнейших и старейших парков города. Он ведет свою историю с конца 19 — начала 20 века. Свое название получил из-за схожести с природными ландшафтами Швейцарии. Протяжённость парка 3, 5 км, общая площадь — 380 га. Это одно из популярнейших мест отдыха нижегородцев и туристов. Гостей парка привлекает уникальная растительность и прекрасные видовые площадки. В «Швейцарии» можно увидеть сосну, орех маньчжурский, каштан, бархат амурский и многие другие деревья, возраст некоторых достигает 150 лет. Также в нем произрастают и краснокнижные растения, например: Лунник многолетний и Венерин Башмачок. К 800-летнему юбилею в парке «Швейцария» прошла масштабная реконструкция. Привели в порядок объекты культурного наследия — трехкилометровую ограду и входные группы, построенные в 1957 году. Кроме того, установили фонтаны, а также оборудовали современные комфортные площадки для отдыха детей и взрослых. В Советское время парк переименовали, сначала — в районный парк им. Кринова, потом — в парк им. Ленинского комсомола. Историческое название «Швейцария» вернулось лишь в 1993 году. Откосы парка Швейцария — точки притяжения нижегородцев и туристов. С высокого берега открывается удивительная панорама на Оку, ее изгибы и заречную часть Нижнего Новгорода. А вечерами с откоса приятно наблюдать за нижегородскими закатами.;Парк Швейцария;2;;56.282221;43.979263
15;г. Нижний Новгород, станция метро «Двигатель Революции»;POINT (43.921408 56.277315);Автор мозаики — Владимир Логинов. Была создана в 1985 году. Входит в реестр произведений советского монументально-декоративного искусства Нижегородской области;Мозаика «Серп и Молот»;10;;56.277315;43.921408
16;Нижний Новгород, памятник природы регионального областного значения Щёлоковский хутор;POINT (44.01893 56.284829);Общественное пространство находится на территории Приокского и Советского районов, в зоне лесопарка «Щелоковский хутор», который был образован в 1965 году, а сейчас является парком природы регионального значения. Общая площадь особо охраняемой территории составляет 333, 1 га (включая зону Марьиной рощи) – это единый массив естественного леса, сохранившийся на юго-востоке Нижнего Новгорода. Данное пространство является одним из самых больших в городе.;Щелоковский хутор;2;;56.284829;44.01893
17;Нижний Новгород, Городской ландшафтный парк культуры и отдыха имени А.С. Пушкина;POINT (43.99821 56.308973);Парк Пушкина расположен в центре Нижнего Новгорода, недалеко от пешеходной улицы. Столетние березы, являющиеся частью культурного наследия, занимают почти половину территории — 5 га. История парка ведется с мая 1880 года и связана с открытием памятника Пушкину в Москве, когда предложили высаживать деревья в день рождения поэта. Инициативу переняли российские города, и уже через год в Нижнем Новгороде власти выделили участок под «Пушкинский сад». Будущий парк находился на окраине города, рядом с оврагами и местами для выгула скота. Первые зеленые насаждения и аллеи здесь появились почти через 30 лет.;Парк Пушкина;2;;56.308973;43.99821
18;Нижний Новгород, сквер имени Свердлова;POINT (44.001921 56.321545);Представляет собой небольшой озеленённый сквер на пересечении центральной нижегородской улицы Большой Покровской и улицы Октябрьской. Впервые сквер обозначается на картах Нижнего Новгорода в 1896 году, позже он именовался как Детский (или Марковский) садик. В ноябре 1957 к 40-летию Октябрьской революции в сквере открыли памятник Якову Михайловичу Свердлову. В 2020 году сквер был благоустроен по концепции Института развития городской̆ среды Нижегородской̆ области. В сквере появились места для отдыха, новые деревья, освещение, игровая зона, площадка для мероприятий и навес, под которым будет приятно ждать трамвай. В сквере Свердлова традиционно собирается клуб коллекционеров-старьёвщиков и по воскресеньям проводит блошиный рынок.;Сквер Свердлова;2;;56.321545;44.001921
19;Нижний Новгород, озеро Мещерское;POINT (43.941571 56.337588);Мещерское озеро в Нижнем Новгороде исполнило мечту многих горожан — получить пляж и водоем в шаговой доступности. Расположенное неподалеку от места впадения Оки в Волгу и окруженное новостройками, озеро заболачивалось и зарастало камышом, но в 2018 году в преддверии Чемпионата мира по футболу его решили привести в порядок. Теперь здесь есть благоустроенный пляж с лежаками, СПА-зонами и детскими площадками. Правда, качество воды оставляет желать лучшего, поэтому купаться здесь официально запрещено. Но это не мешает Мещерскому озеру особенно в жаркие дни оставаться одним из самых популярных мест отдыха для нижегородцев. Водоем сформировался на месте прежнего русла Волги. Еще в советское время он сообщался с рекой через протоку, но затем ее засыпали, чтобы построить на возвышении между озером и Волгой жилой квартал. Сегодня реку и водоем разделяет насыпь шириной около 700 метров.;Мещерское озеро;2;;56.337588;43.941571
20;г. Нижний Новгород, ул.Надежды Сусловой, д.15, корп.2;POINT (44.044003 56.301798);Автор мозаики неизвестен. Была создана в 1978 году. Входит в реестр произведений советского монументально-декоративного искусства Нижегородской области;Мозаика «Колобок»;10;;56.301798;44.044003
21;Нижний Новгород, озеро Бурнаковской низины;POINT (43.912291 56.344997);Прилегающая к Волге территория в черте Нижнего Новгорода, на которой располагается мрн. Бурнаковский, посёлок Левинка, и несколько промышленных предприятий. Ранее территория Бурнаковской низины была застроена промышленными предприятиями топливно-энергетического комплекса такими как Сормовская ТЭЦ, Сормовская нефтебаза, завод 26 Бакинских комиссаров. Здесь был расположен накопитель отходов нефтепереработки (пруд кислых гудронов объемом около 10 тыс. т), а также городская станция снеготаяния. Несмотря на то, что нефтеперерабатывающие предприятия сейчас не работают, территория значительно загрязнена. Кроме того, в 30-90-е годы ХХ века в болотах Бурнаковской низины проводилось борьба с малярийными комарами путем закачки в них нефтепродуктов, что усугубило состояние почв. Тем не менее, на территории низины в районе пос. Левинка сохранились практически нетронутые участки лесов и озёра.;Бурнаковское озеро;2;;56.344997;43.912291
22;Нижний Новгород, памятник природы регионального значения Ботанический сад ННГУ имени Н.И. Лобачевского;POINT (44.007963 56.253885);Ботанический сад Нижегородского Государственного университета им. Лобачевского в Нижнем Новгороде — это один из самых интересных ботанических садов в России. Он имеет статус особо охраняемой природной территории: здесь растут более 100 видов растений из Красной Книги. Всего же здесь можно встретить больше 5000 видов различных растений на территории около 30 гектар. Сад занимает участок рядом с Анкундиновским лесопарком — любимым местом отдыха нижегородцев. Здесь сохранилась большая дубрава, часть которой стала основой дендрария Ботанического сада. Ботанический сад позиционируется прежде всего как научное учреждение. Всего в его ведении находятся 4 учебно-научных лаборатории и биостанция, а за время его существования было издано более 700 книг, брошюр и статей.;Ботанический сад ННГУ;2;;56.253885;44.007963
23;Нижний Новгород, площадь Маркина;POINT (43.988372 56.329078);Площадь Маркина или в простонародье площадь у Речного Вокзала — площадь на Нижне-Волжской набережной между Речным Вокзалом и улицей Рождественская. Площадь названа в честь командующего Волжской флотилией Николая Маркина, который в сентябре 1918 года возглавил операцию по высадке десанта и взятию Казани. 1 октября 1918 года при проведении разведки на Каме в районе Пьяного Бора на канонерской лодке «Ваня» Николай Маркин попал в артиллерийскую засаду, в результате чего героически погиб вместе с судном. Площадь была названа в честь Маркина в 80-е годы, до этого она носила название Сафроновская. На площади есть фонтан и памятник Героям Волжской флотилии;Площадь Маркина;2;;56.329078;43.988372
24;Нижний Новгород, парк Дубки;POINT (43.919475 56.268282);Расположен в границах проспекта Ленина, улицы Новикова-Прибоя и Адмирала Нахимова. Парк находится на месте исторического произрастания дубов возрастом более 100 лет. В 2018 году началось комплексное благоустройство парка, в результате которого он полностью преобразился. Было заново смонтировано новое освещение, построены пешеходные дорожки, лыжня и дорожка для скандинавской ходьбы, установлена новая детская площадка с интересным оборудованием и благоустроена зелёная поляна для йоги. На территории появилась спортивная площадка, где можно поиграть в футбол, волейбол, баскетбол и даже в настольный теннис, а также площадка воркаута с различными тренажёрами. Для заводчиков собак в парке есть специальная площадка для выгула и тренировок.;Парк Дубки;2;;56.268282;43.919475
25;Нижний Новгород, Центральный парк культуры и отдыха Автозаводского района;POINT (43.854551 56.239625);Основан в 1935 году, имеет площадь 69, 9 га, в том числе 2 искусственных пруда. Автозаводский парк — объект культурного наследия и настоящий памятник ландшафтной архитектуры. Основной достопримечательностью парка являются деревянные Главные ворота с башенками-павильонами — яркий представитель крайне редких на сегодня сооружений, сохранивших первоначальный исторический облик. В парке расположена аллея фонтанов, в которую входят 14 маленьких фонтанов, большой центральный фонтан и круглый фонтан у зенитной установки. В 2019 году аллея фонтанов была реконструирована с сохранением исторического облика.;Автозаводский парк;2;;56.239625;43.854551
26;Нижний Новгород, улица Октябрьской Революции, 31к7;POINT (43.933981 56.311214);Парк им. 1 Мая — один из старейших в городе. Он был заложен в 1894 году и расположен на территории Всероссийской торгово-промышленной и художественной выставки 1896 г. Нынешний Парк им. 1 Мая занимает 15, 25 % территории выставки. В настоящее время инфраструктура парка удовлетворяет потребности всех категорий населения, каждый найдет в парке занятия по своему интересу. В парке имеется 5 бесплатных детских площадок для самых маленьких посетителей. Зоны отдыха парка поделены на «тихую зону», расположенную около водоема и прогулочную аллею вдоль стадиона «Локомотив», а также активную зону — центральная аллея. На центральной аллее сосредоточено большинство культурно-развлекательных объектов парка. Дельфинарий, дом «Вверх дном», лабиринт страха, зеркальный лабиринт, зоны аттракционов, центральная площадь, танцевальная площадка. Зоны аттракционов, в свою очередь, поделены на детскую и семейную. На территории парка действует семейный центр активного отдыха «Мадагаскар».;Парк 1 мая;2;;56.311214;43.933981
27;Нижний Новгород, улица Максима Горького, 143;POINT (44.007347 56.314984);Парк Кулибина основан в 1940 году, находится в центре Нижнего Новгорода. Парк носит имя русского механика-изобретателя Ивана Кулибина, чья могила сохранилась на территории парка, где ранее находился городской погост. На сегодняшний день аттракционы советского времени демонтированы. Петропавловская церковь вернула свое религиозное предназначение. Часть прежних построек отремонтирована, часть снесена. В парке до сих пор продолжают расти могучие деревья — тополя и клены, березовые и липовые аллеи. Петропавловское кладбище имеет большое культурное значение, однако в парке нет памятных табличек, рассказывающих о прошлом этого места. На территории парка можно увидеть несколько объектов современного искусства;Парк Кулибина;2;;56.314984;44.007347
28;Нижний Новгород, Петушковская гора;POINT (43.983433 56.32509);Парк 800-летия Нижнего Новгорода появился в рамках инфраструктурной программы «Среда 800» при участии фонда поддержки социальных инициатив «Газпрома». Открытие парка состоялось 11 декабря 2021 года. Основу нового парка составляет набережная Федоровского - уже известное туристическое место в Нижнем Новгороде. На набережной благоустроили два амфитеатра - большой и малый, расположившись на которых можно любоваться видами. Пространство осветили более 1000 светильников, памятники и мосты украсила современная подсветка, появилась инсталляция из 300 светильников с функцией динамического освещения с разными программами. Также были установлены панорамные стеклянные кабинки, а еще детские аттракционы и спортивная площадка. На территории появился общественный туалет, доступный для маломобильных горожан. С набережной открывается великолепный вид на Стрелку - место впадения Оки в Волгу, новый стадион Нижний Новгород и собор Александра Невского.;Парк 800-летия;2;;56.32509;43.983433
29;Нижний Новгород, парк Швейцария;POINT (43.973357 56.27449);Начало истории парк берет в 1903 году, когда учителями Нижегородских гимназий со своими воспитанниками было высажено в районе остановки Мыза первые деревья. Это были сосны, причем, около каждого дерева была табличка участника, посадившего это дерево. Созданный зеленый массив за неповторимую красоту был назван жителями города «Русская Швейцария». Сейчас «Швейцария» занимает рекордную площадь — 52 га и протянулась на 4 км над лесистыми откосами берега Оки. В составе древесных пород парка представители местной флоры: дуб, липа, береза, клен, много лиственницы, есть сосна, тополь. Присутствуют и высокодекоративные экзоты: дуб красный, клен Гиннала, орех маньчжурский, бархат амурский, каштан конский, черемуха Мака, вишня Пеньсельванская, различные виды спирей и боярышников.;Парк «Швейцария»;2;;56.27449;43.973357
30;Нижний Новгород, площадь Максима Горького;POINT (43.990653 56.313612);Тактильный макет достопримечательности для лиц с ограниченными возможностями здоровья. Для достоверной передачи деталей и соблюдения масштабов при создании макетов использовалась технология лазерного сканирования памятников архитектуры. На объектах есть историческая справка, QR-код и текст Брайля, который помогает узнавать о достопримечательностях Нижнего Новгорода людям с нарушениями зрения.;Макет памятника Горькому;3;https://nn-grad.ru/audiogidy/;56.313612;43.990653
31;Нижний Новгород, ул. Почаинская, 27;POINT (43.995317 56.325432);Тактильный макет достопримечательности для лиц с ограниченными возможностями здоровья. Для достоверной передачи деталей и соблюдения масштабов при создании макетов использовалась технология лазерного сканирования памятников архитектуры. На объектах есть историческая справка, QR-код и текст Брайля, который помогает узнавать о достопримечательностях Нижнего Новгорода людям с нарушениями зрения.;Макет домика Петра;3;https://nn-grad.ru/audiogidy/;56.325432;43.995317
32;Нижний Новгород, историческая территория Старый Нижний Новгород;POINT (44.04801 56.326051);Набережная вдоль Гребного канала, протяженностью около трех километров. Набережную Гребного канала благоустроили к 800-летию Нижнего Новгорода. Обновленное место, а особенно Судейская вышка, стало популярным среди нижегородцев и гостей города. Сам Гребной Канал — искусственный водоем вдоль побережья Волги. Он появился на карте Нижнего Новгорода в 1976 году, после того как искусственная дамба соединила правый берег Волги и остров Печерские пески. В итоге получился узкий, шириной до 150 метров, и неглубокий, глубиной около 5 метров, водоем. Он стал прекрасным местом для занятия греблей, и так получил свое нынешнее название. Длина дамбы — около 1200 метров, по ней проложена дорога, заканчивающаяся тупиком. Вдоль канала расположился обустроенный пляж. Летом 2021 года в Нижнем Новгороде проходил фестиваль скульптур «Вдохновение». Девять художников из России и Белоруссии выпиливали композиции из известняка прямо на улице, посмотреть на процесс могли все желающие. В 2022 году для размещения скульптур выбрали площадку между парком Победы и пустующим эллингом на Гребном канале и создали на этой территории Парк скульптур. Сам же эллинг переделали под физкультурный комплекс «Горадром».;Набережная Гребного канала;4;;56.326051;44.04801
33;Нижний Новгород, парк Станкозавода;POINT (43.940886 56.278073);Расположен в Ленинском районе в границах улиц Перекопской, Арктической, Гончарова и реки Борзовка. Парк был организован вблизи Нижегородского Завода Фрезерных Станков в 1950-е годы. После банкротства завода в 1990-е парк пришёл в запустение. В 2011 году здесь был построен физкультурно-оздоровительный комплекс «Заречье», после чего территорию немного привели в порядок. В марте 2020 года благодаря усилиям неравнодушных жителей Ленинского района состоялась презентация концепции развития парка в рамках федеральной программы «Формирование комфортной городской среды», а уже к концу года благоустройство территории было завершено.;Парк Станкозавода;2;;56.278073;43.940886
34;Нижний Новгород, парк Светлоярский;POINT (43.825376 56.358805);Парк площадью более 9 га был основан в 1971 году к 750-летию Нижнего Новгорода в Сормовском районе вокруг одного из самых чистых водоёмов города — Светлоярского озера. Ранее здесь был карьер, где добывали материалы для силикатного производства (недалеко располагается завод). В 60-х в результате заполнения котлована грунтовыми водами на его месте и образовалось озеро, которое назвали в честь знаменитого озера Светлояр. В летний период парковая зона используется в качестве пляжа, места для рыбалки, занятий спортом и просто для тихого отдыха. В холодное время года парк хорош для пеших и лыжных прогулок.;Парк Светлоярский;2;;56.358805;43.825376
35;Нижний Новгород, набережная Федоровского;POINT (43.985295 56.325238);Набережная Федоровского расположена в историческом районе Нижнего Новгорода — Започаинье, на окском откосе, параллельно Рождественской улице. Свое название набережная обрела в честь известного советского ученого, доктора геолого-минералогических наук Николая Федоровского. Она фактически стала визитной карточкой города, благодаря живописным видам панорамы города. Виды с нее открываются поистине прекрасные: старый город, Канавинский мост, противоположный берег реки с собором Александра Невского, и конечно же, стрелка Оки и Волги. Многие приходят сюда полюбоваться закатами. На набережной находится целый ряд знаковых для города и привлекающих внимание мест, среди которых церковь пророка Ильи, радиусный дом, здание школы им. Ломоносова, дом Кулибина, памятники Максиму Горькому и Жюлю Верну. Уже не первый десяток лет набережная Федоровского является излюбленным местом для прогулок всех поколений нижегородцев. Здесь встречают рассветы и провожают закаты, празднуют свадьбы и дни рождения или просто наслаждаются завораживающей городской панорамой. После благоустройства к 800-летию Нижнего Новгорода любоваться городскими пейзажами с набережной Федоровского стало еще удобнее и приятнее — здесь появился новый Парк-800. Пожалуй, самым эффектным местом для наблюдений станет большой амфитеатр с памятником Максиму Горькому на вершине. У нижних ступеней разместились скамейки-качели и крутящиеся кресла. Вдоль всего верхнего променада появились стеклянные беседки-«аквариумы». Прозрачные конструкции призваны защитить отдыхающих от дождя и ветра. Для любителей настоящего релакса на второй террасе установили гамаки. На нижних уровнях также обустроили смотровые площадки с лавочками, качелями и теневыми навесами.;Набережная Федоровского;4;;56.325238;43.985295
36;Нижний Новгород, Нижне-Волжская набережная;POINT (43.991344 56.330481);Нижне-Волжская набережная — одна из самых протяженных улиц в историческом центре Нижнего Новгорода, ее длина 3 км. Она пролегает вдоль Волги от Казанского съезда до Канавинского моста. На ней расположено множество памятников архитектуры и городских достопримечательностей, связанных с историей города. Среди них — Чкаловская лестница и катер «Герой» у её подножия, речной вокзал, краснокирпичные казармы прямо под кремлем, корпуса банка Рукавишниковых и множество других значимых построек. Сегодня это излюбленное место для прогулок нижегородцев и гостей города. На набережной есть зоны для отдыха и велосипедных прогулок. С нее открывается чудесный вид на место слияний Оки и Волги — знаменитую Стрелку. По вечерам здесь можно наблюдать прекрасные закаты, благодаря которым Нижний Новгород получил звание «Столица закатов».;Нижне-Волжская набережная;4;;56.330481;43.991344
37;Нижний Новгород, Казанская набережная;POINT (44.037557 56.323067);Казанская набережная – самая короткая набережная Нижнего Новгорода. Строили эту улицу еще по царскому указу. Так что начало она берет в далеком 1830 году. Набережная обязана своим рождением царю Николаю I и архитекторам Ивану Ефимову и Петру Готману. Вообще-то два столетия назад набережная строилась как продолжение Верхне-Волжской. Но потом здесь возвели Соборную мечеть, и местность приобрела название татарской слободы.;Казанская набережная;4;;56.323067;44.037557
38;Нижний Новгород, мыс Стрелка;POINT (43.976589 56.334505);Стрелка – место слияния двух великих русских рек Волги и Оки. Одна из самых красивых точек Нижнего Новгорода — место впадения Оки в Волгу. Берег Стрелки может похвастаться современной и благоустроенной площадкой для отдыха нижегородцев и гостей города. Здесь расположен уютный парк, вдоль набережной размещены смотровые площадки с биноклями, амфитеатр, с которого открываются потрясающие виды на реку и исторический центр города. На Стрелке расположен Кафедральный собор во имя святого благоверного князя Александра Невского, стадион «Нижний Новгород», памятник архитектуры Пакгаузы.;Окская набережная — Общественное пространство «Стрелка»;4;;56.334505;43.976589
39;Нижний Новгород, Нижегородский район, Крутой переулок, 7;POINT (43.990399 56.325792);Тактильный макет достопримечательности для лиц с ограниченными возможностями здоровья. Для достоверной передачи деталей и соблюдения масштабов при создании макетов использовалась технология лазерного сканирования памятников архитектуры. На объектах есть историческая справка, QR-код и текст Брайля, который помогает узнавать о достопримечательностях Нижнего Новгорода людям с нарушениями зрения.;Макет палат Олисова;3;https://nn-grad.ru/audiogidy/;56.325792;43.990399
40;г. Нижний Новгород, ул. Покровская, д.43;POINT (43.995234 56.318136);Автор мозаики — Ким Шихов. Была создана в 1974 году. Входит в реестр произведений советского монументально-декоративного искусства Нижегородской области.;Мозаика «Художественные промыслы»;10;;56.318136;43.995234
41;Нижний Новгород, Верхне-Волжская набережная;POINT (44.017039 56.329442);Набережная в историческом центре Нижнего Новгорода. Простирается вдоль откоса к Волге от площади Минина и Пожарского до Сенной площади. В 1834 году Николай I, будучи в Нижнем Новгороде с визитом, остался недоволен тем, что любование видами на Волгу и Заволжье омрачало присутствие домов бедняков, куч мусора и неприятные запахи, от них исходившие. В связи с этим он повелел обустроить откос в виде бульвара с городским садом. В 1836 году набережная была выложена булыжником и штакетником, и началась её застройка каменными домами по проектам лучших архитекторов. На набережной, непосредственно на откосе, был разбит Александровский сад, вдоль которого были оборудованы два съезда: Георгиевский (по названию находившейся в начале набережной Георгиевской церкви) и Казанский.;Верхне-Волжская набережная;4;;56.329442;44.017039
42;Нижний Новгород, Георгиевский съезд;POINT (44.009444 56.329995);Одна из достопримечательностей Нижнего Новгорода, установлен вблизи Георгиевской башни Нижегородского кремля в честь знаменитого советского лётчика, совершившего первый беспосадочный перелёт из СССР в США через Северный полюс. От памятника к Волге спускается Волжская лестница, которую также называют «Чкаловской». Памятник легендарному лётчику-испытателю был открыт 15 декабря 1940 года, в день второй годовщины его гибели во время испытательного полёта.;Памятник Валерию Чкалову;1;https://nn-grad.ru/audiogidy/;56.329995;44.009444
43;Нижний Новгород, Рождественская улица;POINT (43.988951 56.328575);Названа в честь церкви Рождества, построенной в 1653 году, в советское время называлась Кооперативной, а позже носила имя Маяковского. В регулярном плане города она появилась в 1770 году, тогда было решено застраивать её только каменными зданиями, чтобы избежать пожаров. После перевода ярмарки в Нижний Новгород, купцы построили здесь гостиницы, доходные дома, банки, так как улица находилась по пути между ярмаркой и центром Нижнего Новгорода.;Улица Рождественская;5;;56.328575;43.988951
44;Нижний Новгород, Нижне-Волжская набережная, 11;POINT (43.993105 56.330355);Торговый дом Рукавишникова на Нижне-Волжской набережной построен в 1911–1914 годах известным архитектором эпохи модерна Фёдором Шехтелем. Заказчиком здания выступил нижегородский купец-миллионер, меценат Сергей Рукавишников. Торговый дом выделяется среди других построек своим архитектурным стилем, он единственный в городе, выполненный в теме готики. Здание обладает сложным силуэтом, который формируют гранёные башенки — «фиалы» разной высоты. При его строительстве применены передовые технологии начала 20 века. Торговый дом органично соединен со зданием банка Рукавишниковых, фасад которого выходит на улицу Рождественскую. Он также построен по проекту Федора Шехтеля. В 1915 году в помещениях Торгового дома располагалось швейное производство военно-обмундировочной мастерской, в советское время — швейная фабрика «Маяк». Сегодня в здании находится академия «Росатома» — совместный проект правительства Нижегородской области и госкорпорации. Старинное здание Торгового дома Рукавишникова является памятником архитектуры и объектом культурного наследия.;Торговый дом С. М. Рукавишникова (фабрика «Маяк»);5;;56.330355;43.993105
45;Нижний Новгород, Кремль;POINT (44.001881 56.326408);Бронзовый макет, изображающий в миниатюре сам кремль и прилегающие к нему улицы. Причем не в современном виде, а так, как эти места выглядели в дореволюционное время. Найти памятник несложно — он находится в Еловом сквере рядом с Министерством культуры Нижегородской области. На макете размером 2, 8 на 2, 1 м изображен кремль и 480 существующих и утраченных исторических зданий в пределах современных улиц Пискунова, Добролюбова, Ильинской и площади Маркина.;Макет старого Нижнего Новгорода;5;;56.326408;44.001881
46;Нижний Новгород, Казанская площадь, 1;POINT (43.97078 56.316524);Бывший железнодорожный вокзал Нижнего Новгорода, просуществовавший до 1974 года. Начало возведения — 1900 год. Окончание — 1904. Здание расположено по адресу Казанская площадь, 1. В настоящее время его занимает фирма «НоваКард» — производитель банковских карт, SIM-карт и транспортных карт, которая полностью отреставрировала здание вокзала. Свободный проход на территорию недоступен.;Ромодановский вокзал;5;;56.316524;43.97078
47;Нижний Новгород, Автозаводский район;POINT (43.882085 56.248057);Одно из крупнейших градообразующих предприятий страны в годы советской власти. Горьковский автозавод вступил в строй 1 января 1932 года. Предприятие было построено в тесном сотрудничестве с американской фирмой Ford Motor Company. Автомобили Ford-A и Ford-АА послужили основой для массового производства советских моделей — 1, 5 тонного грузового автомобиля ГАЗ -АА и легковой машины ГАЗ-А. В годы войны автозавод переориентировал свою деятельность на нужды фронта и выпуск оборонной продукции. Предприятие выпускало легкие танки Т-60 и Т-70, «полуторки» ГАЗ-АА, самоходные установки, миномёты, снаряды для «Катюши». В послевоенное время автозавод с успехом выпускал легковые автомобили «Победа», «Волга», «Чайка». Сегодня на ГАЗе собирают различные модификации «Газелей», «Соболи», «Валдаи» и другую технику. Предприятие является частью автомобильного холдинга «Группа «ГАЗ». Указом Президиума Верховного Совета СССР автозавод награжден орденом Отечественной войны I степени за успешное выполнение заданий Государственного комитета обороны. У завода также имеются ордена Отечественной войны 1 степени, Ленина и Красного знамени.;Завод «ГАЗ»;5;;56.248057;43.882085
48;Нижний Новгород, Казанская набережная, 8А;POINT (44.039311 56.323762);Это самая большая по протяженности и самая высокая в Европе междугородная канатная дорога. Она связывает Нижний Новгород и город Бор. Ее протяженность 3 362 метра, высота опор составляет 95 метров. Примечательно, что более 800 метров проходят над рекой. Канатная дорога на построена в 2012 году. Она способна ежедневно перевозить до 1000 человек. Всего за 15 минут можно добраться с одного берега Волги на другой. Прогулка по канатной дороге — это незабываемые впечатления, когда дух захватывает одновременно от высоты и от открывающихся видов. Нижегородская канатная дорога входит в Книгу рекордов Европы и в Книгу рекордов России, как дорога с самым большим пролетом над водой.;Канатная дорога;5;;56.323762;44.039311
49;Нижний Новгород, Казанская набережная, 6;POINT (44.037698 56.323332);Главный мусульманский храм Нижнего Новгорода открылся 20 марта 1915 года. Она стала второй мечетью города после Ярмарочной (не сохранилась до наших дней). Архитектором Соборной мечети стал Павел Домбровский. Ее главной отличительной особенностью является объединение минарета с куполом. В здании прекрасная акустика. Соборная мечеть расположена на Казанской набережной рядом с Сенной площадью. Это самая старая и самая известная мечеть города из ныне существующих. Она принадлежит татарской общине города и вмещает до 5000 верующих. Нижегородская Соборная мечеть признана объектом истории и культуры федерального значения. В период советской власти Соборная мечеть была превращена в детский сад и станцию скорой помощи. Как культовое сооружение, была возрождена в 1991 году.;Соборная мечеть;5;;56.323332;44.037698
50;г. Нижний Новгород, ул. Чаадаева, д.1;POINT (43.857522 56.327391);Автор мозаики неизвестен. Была создана в 1960-е годы. Входит в реестр произведений советского монументально-декоративного искусства Нижегородской области;Мозаика «Сталевар»;10;;56.327391;43.857522
51;Нижний Новгород, Черниговская улица, 12Б;POINT (43.973897 56.321416);Архитектурный ансамбль в историческом центре Нижнего Новгорода. Главный дом и флигели усадебного комплекса построены в 1838—1849 годах. Автор проекта — первый городской архитектор Нижнего Новгорода Г. И. Кизеветтер. Ансамбль состоит из пяти строений по адресу Черниговская улица, 12: главного дома, двух флигелей и двух проездных кирпичных арочных ворот. Исторические здания сегодня — объекты культурного наследия Российской Федерации.;Усадьба Вяхиревых;5;;56.321416;43.973897
52;Нижний Новгород, площадь Свободы, 2А;POINT (44.017128 56.317277);Нижегородский острог — бывшая тюрьма в историческом центре Нижнего Новгорода. Острог представляет собой комплекс из тюрьмы и административного здания. Построен в виде прямоугольника с четырьмя башнями по углам. Вся территория обнесена кирпичной стеной. В настоящее время используется как музей.;Нижегородский острог;5;;56.317277;44.017128
53;Нижний Новгород, Кремль, 6А;POINT (44.005695 56.32711);Дмитриевская башня — визитная карточка Нижнего Новгорода. Она занимает главенствующее место на нагорном участке Нижегородского кремля. Ее фасад обращен на центральную площадь города — площадь Минина и Пожарского. Дмитриевская башня — главный опорный пункт в обороне нагорного участка крепости. Она построена в центре верхнего посада, там, где в старину проходил Московский тракт. Современный облик в русском стиле башня получила в 1895 году. Годом позже, во время Всероссийской торгово-промышленной выставки, в ней организовали художественно-исторический музей. В 1965 году на шпиль башни водрузили позолоченный герб города в виде шагающего оленя. В 1994 году в киоте, над проездной аркой, установили надвратную икону святого благоверного князя, основателя Нижнего Новгорода Юрия Всеволодовича. По одной из версий башня получила свое название в честь великого князя Дмитрия Константиновича, по другой — в честь церкви во имя святого великомученика Димитрия Солунского, находившейся неподалеку. Церковь не сохранилась до наших дней, на ее месте сегодня установлен памятник Кузьме Минину.;Дмитриевская башня;5;;56.32711;44.005695
54;Нижний Новгород, Кремль, 6;POINT (44.005706 56.327298);Нижегородский кремль построен в начале 16 века. Протяженность его стен 2045 метров, высота от 12 до 22 м, толщина стен от 3, 5 до 4, 5 м. В летний период в стенах древней крепости действует круговой маршрут — боевой ход общей протяженностью более 2 км и уникальным перепадом высот с 30-ти этажный дом. Это самый длинный и единственный маршрут в России, где можно полностью обойти все стены и башни, полюбоваться городом с высоты, разглядеть детали через бинокль. В отличие от большинства русских кремлей, в нижегородском все башни лишь касаются линии стены, что позволяло создать большее число точек флангового (бокового) огня, расширить угол обстрела и вести перекрестный огонь из башен. Такой принцип планировки позволял оставить боевой ход стены свободным, что существенно облегчало движение по пряслу и перемещение тяжелой артиллерии при обороне крепости.;Стены кремля;5;;56.327298;44.005706
55;Нижний Новгород, ул. Рождественская, 34;POINT (43.984651 56.327311);Тактильный макет достопримечательности для лиц с ограниченными возможностями здоровья. Для достоверной передачи деталей и соблюдения масштабов при создании макетов использовалась технология лазерного сканирования памятников архитектуры. На объектах есть историческая справка, QR-код и текст Брайля, который помогает узнавать о достопримечательностях Нижнего Новгорода людям с нарушениями зрения.;Макет Рождественской церкви;3;https://nn-grad.ru/audiogidy/;56.327311;43.984651
56;Нижний Новгород, Кремль, 1В;POINT (43.998183 56.328757);Круглая башня Нижегородского кремля. Расположена в нагорной части между Тайницкой и Часовой башнями. Свое название она получила, потому что стена, протянувшаяся от Тайницкой башни в сторону Северной, совпадает с направлением на север. Северная башня имела 4 яруса с боевыми окнами. По проходу в толще стены можно было спуститься в нижний ярус, там находилось небольшое помещение с лестницей и выход в город. Через эти ворота пропускали гонцов и бойцов, пополнявших армию во время осады крепости. Сейчас рядом с башней находится смотровая площадка, с которой открывается прекрасный вид на Стрелку, место слияния Оки и Волги. В 17 веке Северную башню также называли Наугольной, поскольку она занимала угол крепостной стены, поворачивающий от Почаинского оврага к склону Часовой горы. Еще одно название башни — Ильинская — из-за соседства с церковью Святого Ильи Пророка. В 1836 году Николай I распорядился устроить в Часовой и Северной башнях покои для себя и императрицы, чтобы любоваться оттуда великими рекам. Более того, в разговоре со свитой он выражал желание со временем отказаться от короны, передать власть наследнику и доживать свой век в Нижнем Новгороде. Однако его местам о «царской пенсии» не суждено было сбыться. Тем не менее, на некоторое время башни получили названия Николаевской и Александринской.;Северная башня;5;;56.328757;43.998183
57;Нижний Новгород, Зеленский съезд, 3;POINT (43.995645 56.328908);Казанская церковь в Нижнем Новгороде находилась на Зеленском съезде у подножия кремля и считалась одной из старейших в городе. В 1687 году вместо деревянного храма был отстроен кирпичный. В 50-е годы 20 века церковь была разрушена. Ее возродили в 2012 году на месте более древнего строения по канонам русской православной церкви. Святыня Казанской церкви — икона с частицей мощей святителя Луки Крымского. Престольный праздник в честь иконы Божией Матери «Казанская» отмечается 4 ноября. История возрождения Казанской церкви связана с возникновением нового праздника — Дня народного единства, который также отмечается 4 ноября.;Казанская церковь;5;;56.328908;43.995645
58;г. Нижний Новгород, пр. Гагарина, д.24 ;POINT (43.985146 56.299251);Автор мозаики — Валентин Любимов. Была создана в 1968 году. Входит в реестр произведений советского монументально-декоративного искусства Нижегородской области.;Мозаика «Сказка 1»;10;;56.299251;43.985146
59;Нижний Новгород, историческая территория Старый Нижний Новгород;POINT (44.035827 56.324142);Колесо обозрения открыто в 2021 году к 800-летнему юбилею Нижнего Новгорода. Высота сооружения — 50 метров. Колесо оборудовано современными комфортными кабинками со встроенной системой климат-контроля. С колеса открываются великолепные виды на городскую панораму: Волгу, канатную дорогу, трамплин, Печерский монастырь, Соборную мечеть, близлежащие кварталы. У основания колеса вы можете посетить кофейню Roastberry со вкусным горячими напитками и разнообразными закусками. Вас обслужит необычный официант — робот Дуняша. Прообразом Дуняши стала прекрасная девушка из Перми, мама 4 чудесных мальчиков, настоящая супермодель и первая «Миссис Пермь-2014» — Диана Габдуллина.;Колесо Обозрения;5;;56.324142;44.035827
60;Нижний Новгород, Ярмарочный проезд, 10к1;POINT (43.954164 56.331362);Спасский Староярмарочный собор построен в 1822 году по проекту архитектора Огюста Монферрана. По своему внешнему облику он напоминает знаменитый Исаакиевский собор, который также проектировал прославленный мастер. Своим происхождением собор обязан переносу Макарьевской ярмарки в Нижний Новгород, являлся частью ярмарочного комплекса. Место для собора было определено на главной оси ансамбля Нижегородской ярмарки. Он стоит на сваях и на подушке из насыпного грунта, укрепленного влагостойким портлендским цементом. Храм выполнен в стиле позднего классицизма, для которого характерна симметрия, соразмерность частей, предпочтение прямым линиям. Согласно канонам этого архитектурного стиля со всех четырех сторон собор украшен строгими портиками с колонами. Мощные барабаны, служащие основанием для пяти куполов, декорированы прорезными окнами и полуколоннами. За счет этих световых куполов в храме отличное естественное освещение. Интерьер здания был украшен лепниной, роспись стен выполнена руководителем Арзамасской школы живописи, российским академиком Александром Ступиным и его сыном Рафаилом (росписи не сохранились). Староярмарочный собор до 2009 года являлся кафедральным собором Нижегородской епархии. Иконостас собора создал итальянский художник из Санкт-Петербурга Торричелли. Он выполнил образы для икон по европейским традициям, отличным от канонов православия. Иконы, написанные на европейский манер, не полюбились купцам. Спустя несколько лет их заменили. Автором нового иконостаса стал архитектор Василий Стасов. Надкладезная часовня. Однокупольная водосвятная надкладезная часовня расположена неподалеку от собора. На праздник Крещения Господня, 19 января, прихожане берут освященную воду из нее. Часовня построена в 1990-е годы, соответствует стилю Староярмарочного собора.;Спасский Староярмарочный собор;5;;56.331362;43.954164
61;Нижний Новгород, Большая Покровская улица, 40;POINT (43.995805 56.317578);Дом декабристов Белавиных (ул. Большая Покровская, 40) — одноэтажный оштукатуренный деревянный дом на каменном цоколе, с мезонином. Фасад здания украшен лепным декором в виде перевитых венков «славы». Это типичный элемент оформления домов, построенных после победы в Отечественной войне 1812 года. На первом этаже здания сохранились четыре изразцовые и кафельные печи, с рельефными цветными и белыми поливными изразцами, кафелем, с оригинальными дверками, решётками и вьюшками, а также филенчатые двери. Дом построен в соответствии с канонами русского классицизма на основе «образцового» проекта, утвержденного императором и рекомендованного для российских городов. Приблизительный год постройки — 1820.;Дом Белавиных (ул. Большая Покровская, 40);5;;56.317578;43.995805
62;Нижний Новгород, улица Стрелка, 3А;POINT (43.971477 56.333719);Православный храм в историческом центре Нижнего Новгорода на Стрелке. Высота собора — 80 метров, он заметен как с нагорной и заречной частей города, так и с фарватера рек Волги и Оки. Является третьим по высоте храмом в России после храма Христа Спасителя в Москве и Исаакиевского собора в Санкт-Петербурге. В 2009 году стал кафедральным собором Нижегородской епархии Русской православной церкви. Храм построен по инициативе ярмарочного купечества в 1868–1881 годах. Первоначально предполагалось построить однопрестольную церковь. Однако после приезда на Нижегородскую ярмарку в августе 1858 года Александра II с императрицей Марией Александровной и великою княжной Марией Александровной, было решено построить величественный трехпрестольный собор в честь царских особ. Император одобрил такое решение купечества и даже указал место для будущего храма — на Стрелке слияния Оки и Волги. Примечательно, что до сих пор не установлено точное авторство проекта храма, определившего облик Нижнего Новгорода и ставшего одной из его визитных карточек. Рядом с храмом установлен бронзовый колокол «Соборный» весом в 64 тонны, отлитый к 400-летию Нижегородского народного ополчения. Он украшен рельефными иконами с изображением нижегородских святых: преподобных Серафима Саровского, Макария Желтоводского, благоверных князей Александра Невского и Георгия Всеволодовича, основателя Нижнего Новгорода. При строительстве собора использовались инженерно-технические достижения того времени. В частности, из-за колебаний уровня грунтовых вод, было решено отказаться от обычных свай. В основании храма расположили деревянный плот, изготовленный из 1214 крестообразно расположенных дубовых брёвен. При этом учитывалось свойство дуба, который во влажной среде становился морёным и приобретал прочность металла. Сверху на плоту располагалась сплошная плита из каменной кладки. Благодаря этому способу возведения фундамента Собор Александра Невского прославился, как единственный в мире «храм на плоту».;Собор во имя святого благоверного великого князя Александра Невского;5;;56.333719;43.971477
63;Нижний Новгород, Кремль;POINT (43.998718 56.328551);Первый в России фуникулёр или элеватор, как тогда его называли, на водяной тяге построили в Нижнем Новгороде в 1896 году. Его строительство было приурочено к Всероссийской промышленной и художественной выставке. Движение по Кремлёвскому (Ивановскому) фуникулёру открылось 9 июня 1896 года. Длина рельсового пути Кремлёвского фуникулёра составляла 133, 12 метров. Фуникулёр имел два вагончика, соединённых стальным проволочным канатом. Сейчас фуникулер создается заново - идет его активное строительство.;Фуникулер;5;;56.328551;43.998718
64;Нижний Новгород, Верхне-Волжская набережная, 3;POINT (44.012764 56.329433);Отдел зарубежного искусства Нижегородского государственного художественного музея располагается в уникальном здании — доме купца Дмитрия Васильевича Сироткина. Жилой усадебный дом является памятником архитектуры федерального значения и настоящим украшением города. Дом был построен в 1916 году по проекту архитекторов братьев Леонида, Виктора и Александра Весниных в подражание стилю неоклассицизм. Особняк стал их первой самостоятельной работой. Строительство продолжалось 635 дней.;Дом Сироткина;5;;56.329433;44.012764
65;Нижний Новгород, Кремль, 4Б;POINT (44.008831 56.3301);Представляет собой квадратную четырёхъярусную башню. Нижний ярус башни в настоящее время находится почти целиком под землёй, соединён с верхним ярусом системой переходов с лестницами, оборудованными в толще примыкающего прясла. Центральное помещение башни (главное помещение) изолировано от этих переходов и представляло собой сквозной проезд, до того как ворота Георгиевской башни были наглухо «запущены» опускной решёткой. Ворота защищались сложной системой препятствий — противнику необходимо было преодолеть длинный деревянный мост, затем — подъёмный мост в виде тяжелого щита, в вертикальном положении (5, 3 м) закрывающего проём ворот (высотой 3, 52 м). Устройства подъемного моста сохранились до наших дней почти без изменений. Проезд сквозь башню изгибался под углом, что исключало возможность сквозного прострела. В боковых стенах главного помещения выложены боевые печуры.;Георгиевская башня;5;;56.3301;44.008831
66;Нижний Новгород, Кремль, 2Б;POINT (43.999495 56.32995);Крупнейшая четырёхъярусная воротная башня Нижегородского кремля. Расположена в подгорной части между Часовыми и Белыми башнями. Через неё проходит нижний отрезок Ивановского съезда, который раньше назывался Большой Мостовой улицей. Названа по расположенной на подступах к ней церкви Иоанна Предтечи. Современный вид башня приобрела в 1950-е гг. , когда была надстроена реставраторами вдвое. По одной из современных версий, это была первая каменная башня нового кремля, заложенная под названием Тверская, в 1500 году (хотя нет документов, в которых она бы именовалась Тверской).;Ивановская башня;5;;56.32995;43.999495
67;Нижний Новгород, улица Шевченко, 2;POINT (43.979099 56.315314);"Храм был построен усилиями прихожан церкви Нижнего Новгорода. Его фундамент был заложен в 2008 году с благословения главы Российская и Ново-Нахичеванская епархия архиепископа Езраса Нерсисяна, который собственноручно освятил это место. Дом молитвы, построенный из армянского туфа и по канонам армянской церковной архитектуры, достигает 25 метров в высоту, занимает территорию в 259 квадратных метров и может вместить около двухсот человек. 25 мая 2014 г. состоялось освящение храма ""Сурб Аменапркич"" Российской и Ново-Нахичеванской епархии Армянской Апостольской Церкви и торжественная церемония открытия хачкара в честь российско-армянской дружбы.";Армянская апостольская церковь «Сурб Аменапркич»;5;;56.315314;43.979099
68;Нижегородская область, Нижегородская канатная дорога;POINT (44.041745 56.327454);Судейская вышка на канале была построена в 1988 году по проекту Юрия Карцева и Сергея Касаткина для проведения II Всесоюзных юношеских игр по гребному спорту, став одним из самых ярких примеров неоконструктивизма в России. Разные объёмы, многоступенчатость и лестницы, наклонённые под разными углами, символизировали жизнь в спорте, движение вверх от достижения к достижению. С начала 2000-х годов вышка пустовала, была забыта и разрушалась. Впрочем, в последние годы ей дали статус ОКН. В 2021 году, к 800-летию Нижнего Новгорода, архитектурное бюро «Гора» восстановило вышку в ее первозданном виде. После реставрации в здании открылось кафе и смотровая площадка. Здание восстановили в оригинальном светло-сером цвете с акцентными синими и красными деталями. На фасаде появился логотип «НН800» в честь юбилея города. В нескольких метрах от здания обустроили столики и деревянный настил со ступенями, на которых можно сидеть. В интерьере вышки появились оригинальные конструктивистские элементы – например, двухцветный окрас стен.;Судейская вышка;5;;56.327454;44.041745
69;Нижний Новгород, Большая Покровская улица;POINT (43.998938 56.320757);Главная улица Нижнего Новгорода. Ее протяженность 2232 метра, 1236 из которых - пешеходная часть. Большая Покровская расположена в историческом центре города. Она связывает 4 площади: Минина и Пожарского, Театральную, Горького и Лядова. Это одна из самых старых улиц города, по мнению краеведов ей 400 лет. До 1917 года считалась дворянской. Современная Покровка — туристический центр притяжения. Почти каждое здание улицы имеет свою историческую ценность. В их числе, например, Нижегородский театр драмы, Окружной суд, кинотеатр «Орленок», Государственный банк. Долгое время Большая Покровская была улицей, по которой осуществлялось дорожное движение. По ней ездили кареты, телеги и прочий гужевой транспорт. В 1896 году к открытию Всероссийской промышленной и художественной выставки на улице появилась одна из первых трамвайных линий в стране. Также по Покровке проходил первый маршрут троллейбуса. Проезжей улица была до 1980-х годов. Официальный статус пешеходной Большая Покровская приобрела лишь в 2018 году. Улица трижды меняла свое название. До 18 века она называлась Большой Никольской из-за своего направления к Никольской башне Нового острога. К концу 18 века улицу назвали Большой Покровской в честь церкви Покрова Пресвятой Богородицы, расположенной на ней. Храм был разрушен в 30-е годы прошлого столетия. После революции улицу переименовали в честь революционера Якова Свердлова. Историческое название Большая Покровская вернулось в 1990-х годах.;Улица Большая Покровская;5;;56.320757;43.998938
70;Нижний Новгород, Кремль;POINT (44.004872 56.328576);12 июня 2021 года на месте утраченной святыни в годы советской власти открылась возрожденная колокольня Спасо-Преображенского кафедрального собора в Кремле (собор не сохранился до наших дней, на его месте построен Дом советов). Современное здание воссоздано в историческом облике, отделка фасадов соответствует архитектуре 18 века. Особенность соборной колокольни — часы, размещенные на четырех сторонах. На циферблатах первой пары изображены славянские и арабские цифры, второй — римские. Высота сооружения 51, 5 метра. На колокольне действует смотровая площадка, откуда открывается прекрасный вид на Нижегородский кремль и его окрестности. На колокольне установлены 15 колоколов общим весом 12 787 килограммов. Главный благовестник звонницы весит 6 200 килограмм. Это дар президента России Владимира Путина к 800-летию Нижнего Новгорода.;Спасская колокольня;5;;56.328576;44.004872
71;Нижний Новгород, площадь Минина и Пожарского, 5;POINT (44.007658 56.3275);Гимназия № 1 расположена в здании на площади Минина и Пожарского, 5. С 1814 по 1834 годы оно принадлежало купцу Дмитрию Деулину. Здание сохраняло архитектурное решение 1820-х годов до середины 20 века, в 1952 году было перестроено в стиле советского неоклассицизма, надстроено два этажа. Сейчас в нём располагается гимназия № 1 с углубленным изучением немецкого языка, а также Музей Пушкина. В номерах гостиницы, принадлежавшей купцу Деулину, 2-3 сентября 1833 года останавливался Александр Сергеевич Пушкин, будучи в Нижнем Новгороде проездом в Оренбургскую губернию, где он собирался посетить места Пугачевского бунта.;Гимназия №1;5;;56.3275;44.007658
72;Нижний Новгород, Александровский сад;POINT (44.013874 56.330679);«Ракушка» — легендарная сцена, достопримечательность Александровского сада. Ее построили в 1960 годах для выступлений Нижегородского симфонического оркестра во время реконструкции парка. Навес над сценой по форме напоминал ракушку, так и появилось народное название. Эстрадная сцена стала центральным местом притяжения горожан и туристов в Александровском саду. На ее сцене выступали артисты Нижегородской филармонии, приезжали оркестры из Москвы, Саратова, Свердловска. Давали концерты знаменитости, в частности, маэстро Ростропович и пианист Эмиль Гилельс. В 90-е годы ракушка прекратила свое существование. Новое рождение сцены состоялось в 2021 году к 800-летию Нижнего Новгорода.;Сцена Ракушка;5;;56.330679;44.013874
73;Нижний Новгород, Нижне-Волжская набережная, 1/1;POINT (44.001747 56.331541);Архитектурный ансамбль в историческом центре Нижнего Новгорода. Казармы построены дворянами в 1835 −1853 годах для стрелецких войск. Автором проекта стал известный архитектор Иван Ефимов. В ансамбль входят два здания — Восточный и Западный корпуса. Общая площадь участка — 5, 6 тысячи квадратных метров. Весь исторический комплекс является объектом культурного наследия Российской Федерации. До конца XVII в. стрельцы нижегородского гарнизона жили в городе собственными дворами в особых стрелецких слободах. А с петровских времен служилых людей определяли на постой к жителям города, из-за чего возникало множество конфликтов. Чтобы снизить напряженность, на рубеже XVIII-XIX вв. нижегородские дворяне на собственные деньги на территории Нижегородского кремля выстроили для гарнизона два каменных корпуса казарм, но большая часть офицеров и солдат оставалась жить на постое. Именно по этой причине при разработке в 1834 г. проектов переустройства Нижнего Новгорода городское общество обратилось в Министерство внутренних дел с просьбой о возведении за свой счет новых каменных военных казарм.;Красные казармы;5;;56.331541;44.001747
74;Нижний Новгород, Приволжская слобода, 108Б;POINT (44.049798 56.323262);Монастырь был основан в 14 веке на берегу Волги, неподалеку от Нижнего Новгорода. В конце 16 века он был разрушен оползнем и впоследствии перенесен в новое место. Богатая история монастыря делает его одной из главных достопримечательностей города и страны — он охраняется на федеральном уровне. Архитектурный ансамбль включает церкви 17 века во главе с Вознесенским собором. На территории монастыря расположена единственная в России сохранившаяся шатровая надвратная церковь в честь святого преподобного Евфимия Суздальского. В 1377 году в стенах Печерского Вознесенского монастыря пишется знаменитая Лаврентьевская летопись. «Повесть временных лет» — главный источник сведений о древней истории Руси — была написана монахом Нестором в Киево-Печерской лавре. Но оригинал «Повести временных лет» до нас не дошел, это произведение известно только в списках. И наиболее древний из дошедших до нас вариантов — это список «Повести временных лет» в Лаврентьевской летописи. Монах Лаврентий пишет летопись по заказу Нижегородско-Суздальского князя и начинает ее по традиции с цитирования «Повести временных лет». Он переписывает «Повесть временных лет», а дальше продолжает описание, доводя историю до своего времени. В этом смысле Лаврентьевская летопись уникальна, поскольку сохранила самый древний список «Повести временных лет». В настоящее время на территории Печерского Вознесенского монастыря создана аллея династии Романовых.;Вознесенский Печерский мужской монастырь;5;;56.323262;44.049798
75;Нижний Новгород, Кремль;POINT (44.001157 56.328943);Смотровая площадь — излюбленное место отдыха горожан и туристов. С нее открываются великолепные виды на Нижний Новгород и его окрестности: можно любоваться знаменитыми нижегородскими закатами и речными пейзажами, наслаждаться просторами и старинной архитектурой. На территории кремля существует несколько видовых площадок: непосредственно на стенах крепости, на площади у мемориала Вечный огонь, на Ивановском съезде, верхней площадке Губернаторского сада, колокольне Спасо-Преображенского собора и Кремлевском бульваре. Со смотровой площадки особенно хорошо видна уникальная особенность нижегородского кремля: крепостная стена спускается вниз по склону горы почти на шесть десятков метров подобно монументальной лестнице. По размаху и смелости инженерного замысла этот участок не имеет себе равных во всех русских кремлях. На нем создателями кремля был использован прием кладки, недопустимый с точки зрения современных строителей — наклонными рядами с учетом рельефа местности. Проверка временем подтвердила верность расчетов итальянских зодчих и псковских каменщиков.;Кремль Смотровая площадь;5;;56.328943;44.001157
76;Нижний Новгород, улица Стрелка, 21Ж;POINT (43.974627 56.335071);Пакгаузы на Стрелке — объекты культурного наследия. Интересна история появления этих металлических конструкций. Они были изготовлены в 1882 году для строительства главного павильона 15 Всероссийской промышленно-художественной выставки в Москве. В целях экономии их решено было использовать повторно на следующей выставке, которая проходила в 1896 году в Нижнем Новгороде. После завершения 16 Всероссийской промышленно-художественной выставки, павильоны долгое время использовались в качестве складских помещений в порту на Стрелке. К 1943 году из 4 пакгаузов осталось только два. В поле зрения историков они попали в 2015 году при благоустройстве территории к предстоящему Чемпионату мира по футболу. С этого момента начался этап возрождения этих конструкций. Была проведен исторический анализ сооружений, затем реставрация. Сегодня на Стрелке можно наблюдать эти великолепные объекты во всей красе и гордиться тем, что эта часть исторического наследия сохранена. В настоящее время в одном из пакгаузов открыт концертный зал на 426 мест, а во втором — галерея. Концертный зал в Пакгаузах — уникальный проект в России. Его оригинальная архитектурная черта — стеклянная панорамная стена с видом на Стрелку и историческую часть города. Оснащение выставочного зала соответствует высочайшим стандартам, предъявляемым к музейным пространствам для проведения выставок различного уровня.;Пакгаузы;5;;56.335071;43.974627
77;Нижний Новгород, кресельный подъёмник;POINT (44.036983 56.324305);Трамплин К-60 расположен на Верхне-Волжской набережной рядом с площадью Сенной. Построен он был ещё в 1958 году. На момент постройки являлся одним из самых больших во всей Европе спортивных сооружений: он позволял летающим лыжникам преодолевать отметку в «100», и его испробовали многие именитые спортсмены СССР. Торжественное открытие нового объекта после реконструкции состоялось в 2021 году. Длина трамплина — 60 метров. Он предназначен для проведения тренировочного процесса и соревнований по прыжкам с трамплина высокого уровня (регионального, всероссийского, международного). Спортивное сооружение также подходит для летней эксплуатации, оно оснащен специальным синтетическим покрытием.;Трамплин;5;;56.324305;44.036983
78;Нижний Новгород, Большая Покровская улица, 38;POINT (43.995847 56.317707);Торговый флигель Ольги Каменевой — объект культурного наследия, расположен в пределах исторической территории «Старый Нижний Новгород». Дом в стиле романтического модерна построен в 1914-1916 годах. Одно из немногих строений Нижнего Новгорода сохранившее свой исторический вид. На фасаде здания установлен необычный элемент декора — фигуры грифонов, фантастических крылатых чудовищ. В интерьерах частично сохранились межкомнатные филенчатые двери, а также плиточный пол начала XX века. Торговый флигель вместе с соседним зданием, Домом Белавиных, формируют пространство исторической застройки улицы Большой Покровской. В настоящее время в здании расположена детская областная стоматологическая поликлиника.;Торговый флигель (Большая Покровская, 38);5;;56.317707;43.995847
79;Нижний Новгород, улица Гоголя, 52;POINT (43.985939 56.323851);Под «Палатами Пушникова» подразумевают две постройки, которые имеют разновременные объемы и соединены между собой – одноэтажное здание, имеющие следующие характеристики – 15 х 13, 4 м. , построенное в 1697-1700 гг. , прилегает к двухэтажному (13, 1 х 12, 3 м. ), которое было возведено в 1701-1710 гг. Юго-западную горницу выделяет особое убранство оконных наличников, внутри можно увидеть сомкнутый свод красивых очертаний. Подвалы из сводов были расположены снизу жилых комнат. Есть необходимо было хранить кожевенные товары, использовали подвал, южная сторона которого была оборудована пандусом. Жилой этаж освещается окнами, заключенные в характерные для 17 века килевидные обрамления, которые строились из специальных кирпичей особой формы.;Палаты Пушникова;5;;56.323851;43.985939
80;Нижний Новгород, Кремль, 11А;POINT (44.001527 56.325701);Башня названа в честь храма Николая Чудотворца, некогда стоявшего на Большой Покровской улице, на противоположной стороне Зеленского съезда. В башнях Нижегородского кремля, выстроенных по косогору до Почайны размещались хранилища с порохом, а в самом овраге находился завод с ветряной мельницей — Зелейный двор. Несмотря на то, что по своей огневой мощи Никольская башня уступала Дмитриевской, она служила важным опорным пунктом в обороне крепости. Защитники Никольской башни были вооружены тремя медными пищалями, самая крупная из которых — «казанская» — могла вести огонь ядрами массой в 1, 8 кг. Как и все проездные башни, Никольская имела ворота с защитной решёткой — герсой — и подъёмный мост.;Никольская башня;5;;56.325701;44.001527
81;Нижний Новгород, Кремль, 1Г;POINT (43.998954 56.328754);Располагаясь на самой высокой точке крепости, Часовая башня служила главным сторожевым постом и, вероятно, была центром командования крепостным гарнизоном. У нижегородского краеведа Николая Храмцовского можно встретить объяснение названия башни: в XVI веке за счёт государевых средств на сооружении были установлены главные городские часы и набатные колокола, звон которых взывал защитников цитадели к обороне. Часовой механизм размещался наверху башни, внутри деревянной часовой избы, выполненной в виде пятигранного сруба. В соответствии с суточным счётом Древней Руси, циферблат имел 17 делений, по количеству часов самого продолжительного летнего дня.;Часовая башня;5;;56.328754;43.998954
82;Нижний Новгород, Комсомольское шоссе, 7;POINT (43.90144 56.312345);Местная религиозная организация Церковь Христиан-Адвентистов Седьмого Дня «Нижняя» г. Нижнего Новгорода была основана в 1992 году в результате евангельской программы, проведенной проповедником Джоном Картером. Церковь собирается в Христианском Культурном Центре. Церковь «Нижняя» занимается благотворительной деятельностью, проводит в своем помещении концерты христианских исполнителей, библейские курсы, выставки здоровья, молитвенные собрания, музыкальные фестивали, спектакли, молодежные богослужения.;Церковь Христиан Адвентистов Седьмого Дня;5;;56.312345;43.90144
83;г. Нижний Новгород, станция метро «Кировская»;POINT (43.876432 56.246674);Автор мозаики — Владимир Логинов. Была создана в 1989 году. Входит в реестр произведений советского монументально-декоративного искусства Нижегородской области;Мозаика «Знамёна Революции. Звезда»;10;;56.246674;43.876432
84;Нижний Новгород, Почтовый съезд, 21;POINT (43.990728 56.323937);"Музей детства А. М. Горького «Домик Каширина» открыт 1 января 1938г. Дом деда Горького, нижегородского мещанина, старшины красильного цеха, гласного нижегородской думы В. В. Каширина, – памятник истории и культуры федерального значения, место, связанное с детскими годами писателя (1871–72); место действия автобиографической повести Горького «Детство», одного из выдающихся произведений мировой литературы XX в. , своеобразная энциклопедии русских характеров и национального образа жизни.";Домик Каширина;7;;56.323937;43.990728
85;г. Нижний Новгород, станция метро «Кировская»;POINT (43.876432 56.246674);Автор мозаики — Владимир Логинов. Была создана в 1989 году. Входит в реестр произведений советского монументально-декоративного искусства Нижегородской области;Мозаичное панно «Салют»;10;;56.246674;43.876432
86;Нижний Новгород, Гордеевская ул., 80А;POINT (43.93414 56.328892);В 1958 году по адресу ул. Гордеевская, 80-а был открыт летний кинотеатр «Смена» на 200 мест. Он сразу же стал популярным среди жителей поселка Гордеевский, которые очень сожалели, что двери любимого ими кинотеатра в холодное время года закрыты. Учитывая пожелания канавинцев, городские власти приняли решение построить котельную и кинотеатр стал круглогодичным. С 1992 года кинотеатр «Смена» стал работать исключительно с детьми и подростками, а в 2000 году получает статус Муниципального учреждения культуры «Детский специализированный кинотеатр». С 2008 года учреждение приобрело имя «МБУК общественно — досуговый центр «Смена», и наряду с кинопоказами там стали проводится дополнительные занятия для детей.;Общественно-досуговый центр «Смена»;6;;56.328892;43.93414
87;Нижний Новгород, Кремль, 3;POINT (44.006389 56.329557);Один из старейших региональных музеев России. Его собрание включает коллекции русского, западноевропейского и восточного искусства. Среди более чем 12000 музейных предметов - произведения, имеющие национальное и мировое значение. Музей несколько раз менял адреса. Покинув Дмитриевскую башню, музей расположился в здании Дворянского собрания на ул. Большой Покровской, а затем в особняке купца С. М. Рукавишникова. В 1924 году художественный отдел Нижегородского городского художественного и исторического музея разместился в национализированной усадьбе купца Д. В. Сироткина. Сегодня музей занимает два здания. Экспозиция отечественного искусства представлена во Доме военного губернатора в кремле, экспозиция западноевропейского искусства располагается в доме Дмитрия Сироткина на Верхневолжской набережной.;Нижегородский государственный художественный музей;7;;56.329557;44.006389
88;Нижний Новгород, Канавинский район;POINT (43.84621 56.2841);Открытая экспозиционная площадка «Паровозы России» подразделения по сохранению исторического наследия горьковской железной дороги расположена в микрорайоне Сортировочный города Нижнего Новгорода. На открытой площадке «Паровозы России» экспонируются 32 единицы натурной техники узкой и нормальной колеи конца ХIХ – первой половины ХХ века. Они иллюстрируют развитие инженерной мысли и историю железнодорожного транспорта конца XIX – середины ХХ века. Среди экспонатов – 15 локомотивов, 13 вагонов, семафор, ручной переводной стрелочный механизм, станционный колокол МПС, реконструкция деревянной пассажирской платформы с пунктом ДПС, оснащенным электрожезловым аппаратом, телефоном, ручными сигнальными средствами.;Музей Паровозы России;7;;56.2841;43.84621
89;Нижний Новгород, улица Красная Слобода, 9;POINT (44.028973 56.328646);Центр современного искусства «Терминал А» — уникальный проект Нижнего Новгорода, зарекомендовавший себя как одна из важнейших точек на культурной карте города. Пространство является частью комплекса бывшего судостроительного завода XIX века, развивающегося как арт-кластер. Основная деятельность проекта направлена на поддержку и развитие молодого нижегородского искусства. «Терминал А» проводит форматы открытых мастерских с мастер — классами от художников, артист-толки и тематические экскурсии по выставкам для зрителей показывая «закулисье» создания искусства.;Терминал А;7;;56.328646;44.028973
90;Нижний Новгород, Горбатовская ул., 41;POINT (44.010644 56.274018);Музей деревянного зодчества был создан в начале семидесятых годов прошлого века. Это частица русской деревни XIX в. с жилыми избами, овинами, амбарами, церквями XVII — XVIII вв. , мельницами. Уникальные памятники деревянного зодчества свезены сюда из заволжских районов области. В помещениях домов восстановлены подлинные интерьеры, наполненные предметами крестьянского быта.;Архитектурно-этнографический музей-заповедник «Щелоковский хутор»;7;;56.274018;44.010644
91;г. Нижний Новгород, ул. Заломова, д.13;POINT (43.982379 56.319429);Авторы мозаики — Ким Шихов и Дмитрий Арсенин. Была создана в 1965 году. Входит в реестр произведений советского монументально-декоративного искусства Нижегородской области;Мозаика «Мама и я»;10;;56.319429;43.982379
92;Нижний Новгород, Грузинская улица, 23;POINT (44.002269 56.320391);Один из самых интересных и популярных театров Нижнего Новгорода, который был основан в 1947 году актерами Анатолием Любанским и его женой Юлией Даминской. В театре играла и дочь Даминской Александра Добкевич. Располагается он в исторической части города на улице Грузинская, дом 23. Являясь репертуарным театром, нижегородская «Комедiя» регулярно участвует в проведении социально-значимых городских мероприятий для самых разных слоев населения, что формирует ее восприятие как центр художественного, духовного просветительства и популярное место отдыха, что также позволяет расширить зрительскую аудиторию, постоянно стимулируя ее интерес к театру.;Театр «Комедiя»;8;;56.320391;44.002269
93;Нижний Новгород, улица Дьяконова, 1Е;POINT (43.868973 56.259397);Театр на Счастливой — первый независимый театр в Автозаводском районе Нижнего Новгорода, образованный в 2008 году. У истоков стояли супруги Эдуард Казаков и Елена Пеганова. Первоначально назывался «Новая сказка». Располагается по адресу Дьяконова, дом 1E. Основное амплуа учреждения — социально адаптированные сказки для детей. Выбранный жанр позволяет ставить спектакли на разных площадках, в то числе и на выездных. Артисты работают с куклами, «живым планом», иногда объединяют их вместе. Чуть позже в репертуаре появились спектакли для взрослой публики. Тогда-то «Новая сказка» превратилась в Театр на Счастливой. Если спектакли для малышей носят познавательный характер, знакомят зрителей с правилами этикета и поведения, то представления для взрослых больше похожи на театр-терапию. Зритель словно встречается со старым другом, освобождается от эмоций и расслабляется.;Независимый театр «На счастливой»;8;;56.259397;43.868973
94;Нижний Новгород, Кремль, 2;POINT (44.000178 56.32816);Нижегородская государственная академическая филармония имени М. Ростроповича - одна из старейших концертных организаций, основанная в 1937 году. Нижегородская государственная академическая филармония имени М. Л. Ростроповича и сегодня остается главным организатором симфонических, камерных, органных, детских и литературных концертов, а ее Кремлевский концертный зал — центральной концертной площадкой города, где демонстрируют свое мастерство лучшие российские и зарубежные исполнители, проходят уникальные международные фестивали, звучат высочайшие произведения музыкальной классики и интересные премьеры. Располагается по адресу Кремль, корпус 2. В 1997 году Нижегородской филармонии — первой из нестоличных концертных организаций России — присвоено почетное звание «академическая». Она является победителем конкурсов «Окно в Россию». В 2004 году Нижегородской филармонии присвоено имя М. Л. Ростроповича.;Филармония имени М. Ростроповича;8;;56.32816;44.000178
95;г. Нижний Новгород, станция метро «Комсомольская»;POINT (43.889066 56.252239);Автор мозаики — Ким Шихов. Была создана в 1987 году. Входит в реестр произведений советского монументально-декоративного искусства Нижегородской области.;Мозаика «Все на защиту Родины»;10;;56.252239;43.889066
96;г. Нижний Новгород, пр. Ленина, ост. Главная проходная;POINT (43.88106 56.248436);Авторы мозаики — Ирина и Владимир Каленские. Была создана в 1971 году. Входит в реестр произведений советского монументально-декоративного искусства Нижегородской области;Мозаика «Вручение переходящего знамени ЦК КПСС»;10;;56.248436;43.88106
97;г. Нижний Новгород, станция метро «Московская»;POINT (43.94545 56.321257);Авторы мозаики — Петр и Людмила Шорчевы. Была создана в 1985 году. Входит в реестр произведений советского монументально-декоративного искусства Нижегородской области;Мозаика «История России»;10;;56.321257;43.94545
98;г. Нижний Новгород, ул. Кораблестроителей, д.3;POINT (43.823251 56.365284);Авторы мозаики — Ким Шихов и Юрий Приданов. Была создана в 1972-1973 годах. Входит в реестр произведений советского монументально-декоративного искусства Нижегородской области;Мозаика «Баррикады»;10;;56.365284;43.823251
99;г. Нижний Новгород, ул Порт-Артурская, д.12;POINT (43.912625 56.294371);Автор мозаики неизвестен. Была создана в 1970-е годы. Входит в реестр произведений советского монументально-декоративного искусства Нижегородской области;Мозаика «Созидать»;10;;56.294371;43.912625
100;г. Нижний Новгород, Молодёжный проспект, станция метро «Парк культуры»;POINT (43.859687 56.241768);Автор мозаики — Олег Осин. Была создана в 1989 году. Входит в реестр произведений советского монументально-декоративного искусства Нижегородской области.;Мозаика «Букет»;10;;56.241768;43.859687
101;г. Нижний Новгород, станция метро «Ленинская»;POINT (43.938526 56.300073);Автор мозаики — Павел Шиндяйкин. Была создана в 1985 году. Входит в реестр произведений советского монументально-декоративного искусства Нижегородской области.;Витраж «Достижения СССР»;10;;56.300073;43.938526
102;г. Нижний Новгород, ул. Маршала Жукова, д.27 ;POINT (43.947973 56.229652);Автор мозаики — Валентин Любимов. Была создана в 1977 году. Входит в реестр произведений советского монументально-декоративного искусства Нижегородской области.;Мозаика «В космосе»;10;;56.229652;43.947973
103;г. Нижний Новгород, ул.Адмирала Нахимова, д.10А ;POINT (43.9238 56.269486);Авторы мозаики — Дмитрий Арсенин и Анатлоий Павлов. Была создана в 1971 году. Входит в реестр произведений советского монументально-декоративного искусства Нижегородской области;Мозаика «Корабелы»;10;;56.269486;43.9238
104;г. Нижний Новгород, пр. Гагарина, д.24 ;POINT (43.985146 56.299251);Автор мозаики — Валентин Любимов. Была создана в 1968 году. Входит в реестр произведений советского монументально-декоративного искусства Нижегородской области.;Мозаика «Сказка 2»;10;;56.299251;43.985146
105;г. Нижний Новгород, ул. Ванеева, д.199;POINT (44.034095 56.293297);Автор мозаики — Станислав Лотонин. Была создана в 1978 году. Входит в реестр произведений советского монументально-декоративного искусства Нижегородской области;Мозаика «Трудовые будни»;10;;56.293297;44.034095
106;г. Нижний Новгород, станция метро «Московская»;POINT (43.94545 56.321257);Авторы мозаики — Петр и Людмила Шорчевы. Была создана в 1985 году. Входит в реестр произведений советского монументально-декоративного искусства Нижегородской области;Мозаика «Наши достижения»;10;;56.321257;43.94545
107;г. Нижний Новгород, Молодёжный проспект, станция метро «Парк культуры»;POINT (43.859687 56.241768);Автор мозаики — Олег Осин. Была создана в 1989 году. Входит в реестр произведений советского монументально-декоративного искусства Нижегородской области.;Мозаика «Пруд в парке»;10;;56.241768;43.859687
108;г. Нижний Новгород, ул Порт-Артурская, д.12;POINT (43.912625 56.294371);Автор мозаики неизвестен. Была создана в 1970-е годы. Входит в реестр произведений советского монументально-декоративного искусства Нижегородской области;Мозаика «Учиться»;10;;56.294371;43.912625
109;г. Нижний Новгород, пр. Ленина, ост. Главная проходная;POINT (43.881566 56.248638);Авторы мозаики — Ирина и Владимир Каленские. Была создана в 1971 году. Входит в реестр произведений советского монументально-декоративного искусства Нижегородской области;Мозаика «Вручение знамени ГКО за героический труд в годы ВОВ»;10;;56.248638;43.881566
110;Г.Нижний Новгород, Микрорайон Щербинки-1, д.31 ;POINT (43.966676 56.240208);Автор мозаики — Валентин Любимов. Была создана в 1969 году. Входит в реестр произведений советского монументально-декоративного искусства Нижегородской области.;Мозаика «Садко»;10;;56.240208;43.966676
111;г. Нижний Новгород, станция метро «Чкаловская»;POINT (43.937072 56.311309);Автор мозаики — Валентин Любимов. Была создана в 1985 году. Входит в реестр произведений советского монументально-декоративного искусства Нижегородской области.;Панно «Развитие авиации»;10;;56.311309;43.937072
112;г. Нижний Новгород, станция метро «Московская»;POINT (43.94545 56.321257);Авторы мозаики — Петр и Людмила Шорчевы. Была создана в 1985 году. Входит в реестр произведений советского монументально-декоративного искусства Нижегородской области;Мозаика «Культура и образование»;10;;56.321257;43.94545
113;г. Нижний Новгород, Казанское шоссе, д.12 к. 6;POINT (44.084625 56.285903);Авторы мозаики — Петр и Людмила Шорчевы. Была создана в 1985 году. Входит в реестр произведений советского монументально-декоративного искусства Нижегородской области;Рельеф «Инженер»;10;;56.285903;44.084625
114;г. Нижний Новгород, станция метро «Ленинская»;POINT (43.938526 56.300073);Автор мозаики — Павел Шиндяйкин. Была создана в 1985 году. Входит в реестр произведений советского монументально-декоративного искусства Нижегородской области.;Витраж «Ленин с нами! »;10;;56.300073;43.938526
115;г. Нижний Новгород, площадь Свободы, сквер 1905 года;POINT (44.015983 56.316849);Автор мозаики — Александр Яковлев-старший. Была создана в 1930 году. Входит в реестр произведений советского монументально-декоративного искусства Нижегородской области;Мозаика на памятнике героям и жертвам революции 1905 года;10;;56.316849;44.015983
116;г.Нижний Новгород, площадь Революции, 2А;POINT (43.946518 56.321817);Автор мозаики — Валентин Любимов. Была создана в 1965-1971 годах. Входит в реестр произведений советского монументально-декоративного искусства Нижегородской области;Мозаика «Революционное Сормово»;10;;56.321817;43.946518
117;г. Нижний Новгород, Казанское шоссе, д.12 к. 6;POINT (44.084625 56.285903);Авторы мозаики — Петр и Людмила Шорчевы. Была создана в 1985 году. Входит в реестр произведений советского монументально-декоративного искусства Нижегородской области;Рельеф «Исследователь»;10;;56.285903;44.084625
118;г. Нижний Новгород, ул.Коминтерна, д.250;POINT (43.863774 56.35721);Автор мозаики — Станислав Лотонин. Была создана в 1976 году. Входит в реестр произведений советского монументально-декоративного искусства Нижегородской области;Панно «Единство поколений»;10;;56.35721;43.863774
119;г. Нижний Новгород, ул. Кораблестроителей, д.5;POINT (43.82238 56.365014);Авторы мозаики — Ким Шихов и Юрий Приданов. Была создана в 1972-1973 годах. Входит в реестр произведений советского монументально-декоративного искусства Нижегородской области;Мозаика «Судостроители»;10;;56.365014;43.82238
120;г. Нижний Новгород, ул. Кораблестроителей, д.7;POINT (43.821517 56.36475);Авторы мозаики — Ким Шихов и Юрий Приданов. Была создана в 1972-1973 годах. Входит в реестр произведений советского монументально-декоративного искусства Нижегородской области;Мозаика «Военные годы»;10;;56.36475;43.821517
121;г. Нижний Новгород, ул. Кораблестроителей, д.9;POINT (43.820637 56.364491);Авторы мозаики — Ким Шихов и Юрий Приданов. Была создана в 1972-1973 годах. Входит в реестр произведений советского монументально-декоративного искусства Нижегородской области;Мозаика «Жизнь, труд, мир»;10;;56.364491;43.820637
122;г. Нижний Новгород, Октябрьская пл., д.1 (КЗ «Юпитер»);POINT (44.009456 56.323158);Автор мозаики — Николай Каштанов. Была создана в 1972 году. Входит в реестр произведений советского монументально-декоративного искусства Нижегородской области.;Рельеф «Маркс – Энгельс - Ленин»;10;;56.323158;44.009456
123;г. Нижний Новгород, пр. Ленина, д. 41;POINT (43.92503 56.283605);Автор мозаики — Валентин Любимов. Была создана в 1967 году. Входит в реестр произведений советского монументально-декоративного искусства Нижегородской области.;Мозаика «1917-1967»;10;;56.283605;43.92503
124;г. Нижний Новгород, ул. Заломова, д.15;POINT (43.982981 56.318416);Автор мозаики — Ким Шихов. Была создана в 1965 году. Входит в реестр произведений советского монументально-декоративного искусства Нижегородской области.;Мозаика «20 лет Победы»;10;;56.318416;43.982981
125;г. Нижний Новгород, ул. Большая Покровская, д.4;POINT (44.003804 56.32496);Автор мозаики — Евгений Серажетдинов. Была создана в 1970-е годы. Входит в реестр произведений советского монументально-декоративного искусства Нижегородской области;Скульптурная вывеска «Бык»;10;;56.32496;44.003804
126;г. Нижний Новгород, ул. М.Горького, д.145 ;POINT (44.010511 56.316545);Автор мозаики неизвестен. Была создана в 1978 году. Входит в реестр произведений советского монументально-декоративного искусства Нижегородской области;Рельеф «Маски»;10;;56.316545;44.010511
127;г. Нижний Новгород, ул. Ванеева, д.88;POINT (44.03449 56.297982);Автор мозаики — Валентин Любимов. Была создана в 1966 году. Входит в реестр произведений советского монументально-декоративного искусства Нижегородской области.;Мозаика «Регата»;10;;56.297982;44.03449
128;г. Нижний Новгород, Южное шоссе, д.49;POINT (43.871473 56.230692);Автор мозаики неизвестен. Была создана в 1964 году. Входит в реестр произведений советского монументально-декоративного искусства Нижегородской области;Мозаика «Прометей»;10;;56.230692;43.871473
129;г. Нижний Новгород, ул. Большая Покровская, д.6;POINT (44.003274 56.324541);Автор мозаики — Анатолий Лисин. Была создана в 1970-е годы. Входит в реестр произведений советского монументально-декоративного искусства Нижегородской области;Скульптурная вывеска «Обезьянка и кофе»;10;;56.324541;44.003274
130;г. Нижний Новгород, ул. Чаадаева, д.1;POINT (43.857522 56.327391);Автор мозаики неизвестен. Была создана в 1960-е годы. Входит в реестр произведений советского монументально-декоративного искусства Нижегородской области;Мозаика «Учёный»;10;;56.327391;43.857522
131;г. Нижний Новгород, ул. Чаадаева, д.1;POINT (43.857522 56.327391);Автор мозаики неизвестен. Была создана в 1960-е годы. Входит в реестр произведений советского монументально-декоративного искусства Нижегородской области;Мозаика «Космонавт»;10;;56.327391;43.857522
132;г. Нижний Новгород, ул. Энгельса, д. 5А;POINT (43.867421 56.340964);Автор мозаики неизвестен. Была создана в 1966 году. Входит в реестр произведений советского монументально-декоративного искусства Нижегородской области;Мозаики «Дюймовочка» и «Конёк-Горбунок»;10;;56.340964;43.867421
133;г. Нижний Новгород, ул. Тропинина, д.5 ;POINT (43.946213 56.23504);Автор мозаики — Виктор Пурихов. Была создана в 1969 году. Входит в реестр произведений советского монументально-декоративного искусства Нижегородской области.;Мозаика «Изразцы»;10;;56.23504;43.946213
134;г. Нижний Новгород, станция метро «Пролетарская»;POINT (43.912173 56.265689);Автор мозаики — Николай Борисов. Была создана в 1985 году. Входит в реестр произведений советского монументально-декоративного искусства Нижегородской области.;Панно «Мир»;10;;56.265689;43.912173
135;г. Нижний Новгород, станция метро «Пролетарская»;POINT (43.912173 56.265689);Автор мозаики — Николай Борисов. Была создана в 1985 году. Входит в реестр произведений советского монументально-декоративного искусства Нижегородской области.;Панно «Труд»;10;;56.265689;43.912173
136;г. Нижний Новгород, ул. Ванеева, д.90;POINT (44.03475 56.297538);Автор мозаики — Валентин Любимов. Была создана в 1966 году. Входит в реестр произведений советского монументально-декоративного искусства Нижегородской области.;Мозаика «Дерево дружбы»;10;;56.297538;44.03475
137;г. Нижний Новгород, ул. Адмирала Васюнина, д.1, корп.1;POINT (44.036466 56.297418);Автор мозаики — Валентин Любимов. Была создана в 1968 году. Входит в реестр произведений советского монументально-декоративного искусства Нижегородской области.;Мозаика «Команда. Парусный спорт»;10;;56.297418;44.036466
138;г. Нижний Новгород, ул. Энгельса, 11;POINT (43.869434 56.341154);Авторы мозаики — Дмитрий Арсенин и Анатолий Павлов. Год создания неизвестен. Входит в реестр произведений советского монументально-декоративного искусства Нижегородской области;Мозаика «Паруса»;10;;56.341154;43.869434
139;г. Нижний Новгород, ул.Строкина, д.18 б ;POINT (43.844442 56.255763);Автор мозаики неизвестен. Была создана в 1981 году. Входит в реестр произведений советского монументально-декоративного искусства Нижегородской области;Мозаика «Волшебный мир»;10;;56.255763;43.844442
140;г.Нижний Новгород, площадь Революции, 2А;POINT (43.946518 56.321817);Автор мозаики — Валентин Любимов. Была создана в 1965-1971 годах. Входит в реестр произведений советского монументально-декоративного искусства Нижегородской области.;Мозаика «Великая страна»;10;;56.321817;43.946518
141;Нижний Новгород, улица Бетанкура, 1А;POINT (43.96464 56.337024);Стадион Нижний Новгород — футбольный стадион международного класса. Он находится на территории Стрелки — месте слияния Оки в Волги. Вместимость спортивного объекта составляет 45 000 мест, общая площадь — 127 500 м². Поблизости от него расположена станция метро «Стрелка», а также Кафедральный собор во имя Святого благоверного князя Александра Невского и объекты культурного наследия Пакгаузы. Дизайнеры проекта вдохновлялись волжскими просторами. Стадион представляет собой колоннаду, соединенную расположенными по кругу опорами. Замыкает конструкцию радиальная крыша-козырек над зрительскими трибунами. Стадион выполнен в бело-синей цветовой гамме. Выбор цветов не случаен: синий символизируют воду, а белый — ветер. В 2018 году на нем проходили матчи Чемпионата мира по футболу. ЧМ-2018 подарил жителям города не только стадион «Нижний Новгород», но и спортивно-развлекательную площадку «Спорт Порт». Территория спорта и отдыха, прилегающая к стадиону, превратилась в место сбора любителей активного образа жизни. В 2019 году стадион «Нижний Новгород» попал в ТОП-5 арен по посещаемости, а также вошел в список лучших в мире спортивных арен. Сооружение является домашней ареной нижегородского футбольного клуба «Пари НН». Стадион «Нижний Новгород» стал не только ареной для футбольных матчей, но и концертной площадкой, местом для проведения фестивалей, праздников и даже свадеб, а в рамках фестиваля «Горький Fest» стадион превратился в летний кинотеатр.;Стадион Нижний Новгород;5;;56.337024;43.96464
142;Нижний Новгород, Большая Покровская улица, 26;POINT (43.998765 56.320166);Нижегородское отделение Государственного банка — одно из немногих зданий в стране, никогда не менявших своих функций и архитектурного облика. Отделение открылось в 1868 году. Здание напоминает сказочный замок и сочетает в себе черты романской архитектуры и русского зодчества 17 века. Постоянно действующее отделение Государственного банка в Нижнем Новгороде было учреждено в связи с возросшим значением ярмарочной торговли. Его строительство было приурочено к 300-летнему юбилею царствования Дома Романовых. 17 мая 1913 года император Николай II с семьей прибыли в Нижний Новгород и посетили Госбанк на Большой Покровской. Перед приездом царя рядом с банком была построена небольшая башня с часами. По легенде ее установили, чтобы закрыть от императорского взора развешанное на балконе соседнего дома белье. Эти часы ходят и по сей день. Со строительством башенки-часозвони связаны самые разные легенды, вернее — анекдоты. Рассказывают, например, что накануне приезда императора случился конфуз — прачка, жившая в соседнем доме, вывесила на балкон нижнее белье, и отказалась его убрать. Полиция пригрозила ей арестом, в ответ она пообещала «броситься в ноги Императору и рассказать, как притесняют бедную женщину». Разрешил конфликт архитектор. За одну ночь была выстроена башенка с часами, закрывшая балкон строптивой прачки и ее белье. Другая легенда гласит, что за часозвоней находился дом купца, который любил распивать чай на балконе в неглиже. Вот его-то и решено было убрать с глаз императора, загородив высокой башенкой. Однако историки утверждают, что это не более, чем городские байки. На самом деле архитектор В. А. Покровский спроектировал часозвоню для другой цели: ему нужно было спрятать трансформаторную будку, которая портила благородный вид здания Госбанка. Вот ее-то и поместили внутрь башенки. Да и никакого жилого дома по соседству не было: здесь стояла церковь Покрова Божией Матери, давшая название улице Большой Покровской.;Нижегородское отделение Государственного банка;5;;56.320166;43.998765
143;Нижний Новгород, Канавинский район, микрорайон Ярмарка;POINT (43.961958 56.327944);Нижегородская ярмарка — крупнейшая торговая площадка Российской империи, расположенная в непосредственной близости от главных речных торговых артерий Оки и Волги. История ее основания уходит корнями в 17 век. В то время ярмарка находилась в 90 км от Нижнего Новгорода вниз по Волге у стен Макарьевского монастыря. После пожара 1816 года торговлю решили перенести в Нижний Новгород. Для этого осушили местность, построили канаву для сточных вод и первую в Европе канализацию, а также гостиницы, подсобные и складские помещения. История Нижегородской ярмарки насчитывает более четырёх веков. Ранее она выполняла важнейшую функцию «менового двора Европы с Азией». Здесь продавались товары из самых отдаленных регионов мира, основная торговля шла с Востоком: Китаем, Персией и Средней Азией. Ярмарочный комплекс на Стрелке был построен под руководством зодчего московского Манежа Августина Бетанкура. Главный ярмарочный дом построен в 1890 году. В нем размещались квартира и канцелярия губернатора, учреждения по управлению ярмаркой, отделения Государственного банка. На первом этаже находился лучший пассаж для розничной торговли. В 1918 году деятельность Ярмарки была прекращена, а с 1922 года здесь было место дислокации частей Красной армии. В 1929 году в здании Главного ярмарочного дома надолго обосновался магазин «Детский мир». Традиция проведения ярмарок на нижегородской земле была восстановлена лишь в 1990 году, и в настоящее время здесь проводятся значимые форумы и выставки. В 1896 году на средства нижегородского купечества на Нижегородской ярмарке было установлено два одинаковых чугунных фонтана: один у Главного ярмарочного дома, второй у Староярмарочного собора. В 1928 году фонтан от собора перенесли ко Дворцу культуры им. Ленина, второй же остался на ярмарочной площади. Фонтан украшают чугунные человеческие и львиные головы, из которых струится вода. Памятник искусства является объектом культурного наследия регионального значения 19 века. Павильон №1 – здание с зеркальным фасадом, расположенное справа от входа в Главный ярмарочный дом. Его невозможно не заметить. Павильон был построено в 1996 году, в 2020 капитально отремонтирован. Его площадь свыше 4000 квадратных, вместимость до 2000 человек. Здесь проходят крупные Всероссийские выставки и форумы, а также корпоративные мероприятия, презентации, шоу-программы. В 2021 году территория Ярмарки была обновлена в рамках празднования 800-летия города.;Нижегородская ярмарка;5;;56.327944;43.961958
144;Нижний Новгород, Большая Покровская улица, 29;POINT (43.998469 56.320636);Жилой дом завода «Красное Сормово» на Большой Покровской, 29 является памятником градостроительства и архитектуры, объектом культурного наследия регионального значения. Здание — образец архитектуры соцреализма эпохи сталинской неоклассики. Это архитектурное течение называют «стиль Победы» или «Сталинский ампир». Оно построено в 1952 −1954 годы по проекту нижегородского архитектора Людмилы Рождественской. Этот пятиэтажный дом предназначался для проживания работников завода «Красное Сормово». Расстояние между домом на Большой Покровской и заводом «Красное Сормово» составляет 25 км. Даже в наши дни при наличии четырех мостов через Оку и развитой транспортной сети дорога занимает полчаса. А в середине 20 века при наличии единственного моста этот путь был очень длительным. Поэтому любопытно, что дом для работников завода «Красное Сормово» был построен на таком значительном расстоянии от предприятия. Зато квартиру в нем получила его создатель — архитектор Людмила Рождественская.;Жилой дом завода «Красное Сормово»;5;;56.320636;43.998469
145;Нижний Новгород, историческая территория Старый Нижний Новгород;POINT (44.013355 56.319229);Дата основания: 852 год. Население: 583 393 жителей. Площадь: 210, 34 км². Дата заключения Соглашения об установлении побратимских отношений с Нижним Новгородом: сентябрь 1991 года. Основные направления сотрудничества: культура, наука, образование, молодежная политика, спорт.;Эссен (Федеративная Республика Германия);9;;56.319229;44.013355
146;Нижний Новгород, улица Баррикад, 1;POINT (43.870401 56.358907);Одно их крупнейших и старейших судостроительных предприятий в стране, ведет свою историю с 1849 года. В мае 1850 года было спущено на воду первое судно — деревянный колёсный пароход «Ласточка», в 1870 году была построена первая в России мартеновская печь, в 1953 году — первая в мире установка непрерывной разливки стали. «Красное Сормово» — предприятие-универсал. В разное время на нем производили паровозы, вагоны, паровые машины и дизели, трамваи и, конечно, пассажирские пароходы, буксиры, сухогрузные и нефтеналивные суда, технический флот, подводные лодки. В годы Великой Отечественной войны на заводе выпускали танки Т-34, снаряды для «Катюш» и другие боеприпасы. Особую славу «Красному Сормову» принесли скоростные корабли на подводных крыльях, самые известные из которых «Ракеты» и «Метеоры». Современное предприятие ориентировано на выпуск танкеров, сухогрузов, круизных пассажирских судов речного и смешанного «река-море» плавания. Одни из самых знаменитых речных колесных пароходов сормовского производства «Спартак» и «Володарский» стали кинозвездами. «Спартак» сыграл роль «Ласточки» в фильме Эльдара Рязанова «Жестокий романс», «Володарский» снимался в фильмах «Хождение по мукам», «Очарованный странник» и «Васса». Эти пароходы были построены в 1914 году. Первоначально они носили имена «Великая княжна Ольга Николаевна» и «Великая княжна Татьяна Николаевна» в честь дочерей российского императора Николая II. В 1917-1918 годах пароход «Великая княжна Татьяна Николаевна» был переименован в «Добрыню Никитича», а «Великая княжна Ольга Николаевна» — в «Алёшу Поповича». Позже они сменили названия на «Спартак» и «Володарский». ФОТО ПРЕДОСТАВЛЕНО ПАО «Завод «Красное Сормово».;Завод «Красное Сормово»;5;;56.358907;43.870401
147;г. Нижний Новгород, пр. Ленина, д.11;POINT (43.9344 56.29544);Авторы мозаики —Виктор Бебенин, Владимир Каштанов, Валентин Любимов, Станислав Лотонин, Леонид Цыкаленко и Александр Швайкин. Была создана в 1977 году. Входит в реестр произведений советского монументально-декоративного искусства Нижегородской области;Панно «Гимн труду»;10;;56.29544;43.9344
148;г. Нижний Новгород, станция метро «Московская»;POINT (43.94545 56.321257);Авторы мозаики — Петр и Людмила Шорчевы. Была создана в 1985 году. Входит в реестр произведений советского монументально-декоративного искусства Нижегородской области;Мозаика «Вечная память»;10;;56.321257;43.94545
149;г. Нижний Новгород, станция метро «Кировская»;POINT (43.876432 56.246674);Автор мозаики — Владимир Логинов. Была создана в 1989 году. Входит в реестр произведений советского монументально-декоративного искусства Нижегородской области;Мозаика «Знамёна Революции. Серп и Молот»;10;;56.246674;43.876432
150;г. Нижний Новгород, ул. Маршала Жукова, д.27;POINT (43.947973 56.229652);Автор мозаики — Валентин Любимов. Была создана в 1977 году. Входит в реестр произведений советского монументально-декоративного искусства Нижегородской области.;Мозаика «Под водой»;10;;56.229652;43.947973
151;г. Нижний Новгород, ул. Рождественская,д. 49;POINT (43.981094 56.326527);Авторы мозаики — Владимир Арискин, Александр Щелоков и Андрей Гладков. Была создана в 1987 году. Входит в реестр произведений советского монументально-декоративного искусства Нижегородской области;Панно «Связь времён»;10;;56.326527;43.981094
152;г. Нижний Новгород, ул. Большая Покровская, д.39Б ;POINT (43.995891 56.318322);Автор мозаики — Анатолий Лисин. Была создана в 1979 году. Входит в реестр произведений советского монументально-декоративного искусства Нижегородской области;Пространственная композиция «Приглашаем в театр»;10;;56.318322;43.995891
153;Нижний Новгород, ул. Большая Покровская, 13;POINT (44.001351 56.324162);Тактильный макет достопримечательности для лиц с ограниченными возможностями здоровья. Для достоверной передачи деталей и соблюдения масштабов при создании макетов использовалась технология лазерного сканирования памятников архитектуры. На объектах есть историческая справка, QR-код и текст Брайля, который помогает узнавать о достопримечательностях Нижнего Новгорода людям с нарушениями зрения.;Макет театра драмы;3;https://nn-grad.ru/audiogidy/;56.324162;44.001351
154;Нижний Новгород, Кремль;POINT (44.002932 56.328544);У Ивановской башни кремля было сформировано знаменитое ополчение Кузьмы Минина и князя Дмитрия Пожарского, освободившее Россию от польско-литовской интервенции. Нижегородский кремль — главная достопримечательность города. Древняя каменная крепость является уникальным инженерно-фортификационным сооружением начала 16 века, шедевром средневекового зодчества, гордостью исторической части города. За всю свою историю крепость единственная в России осталась неприступной для врага. В годы Великой Отечественной войны кремль также сыграл значительную роль в обороне города. На верхних площадках кровли башен были установлены зенитные пулеметы, защищавшие город от немецко-фашистской авиации. Первоначально в составе кремля было 14 башен, на сегодняшний момент сохранилось только 13 из них. 14-я башня кремля — отводная башня-стрельница, располагалась перед Дмитриевскими воротами и была связанная с Дмитриевской башней подъёмным мостом над заполненным водой рвом. У стрельницы было только 3 стены — четвертая, обращенная к Дмитриевской башне, отсутствовала. Таким образом, захватить стрельницу было невозможно — попав внутрь, враги оказались бы под обстрелом защитников Кремля. Башня была разобрана на кирпич в конце 18 века.;Нижегородский кремль;5;;56.328544;44.002932
155;Нижний Новгород, Большая Покровская улица, 13;POINT (44.001438 56.324141);Нижегородский государственный академический театр драмы имени М. Горького — один из старейших в России, ему более 200 лет. Располагается по адресу Большая Покровская, дом 13. История театра начинается с того времени, когда князь Николай Григорьевич Шаховской, переехав на постоянное жительство в Нижний Новгород и перевезя в город труппу и имущество своего крепостного театра, 7 февраля 1798 года открыл Нижегородский публичный театр, а его крепостные актеры сыграли в нем первый спектакль — по комедии Д. И. Фонвизина «Выбор гувернера». В 1968 году театру присвоено звание «Академический».;Театр драмы им. М. Горького;8;;56.324141;44.001438
156;Нижний Новгород, площадь Минина и Пожарского;POINT (44.006597 56.327266);"Площадь Минина и Пожарского — главная площадь Нижнего Новгорода. Является общественно-культурным центром города, местом проведения государственных праздников и народных гуляний. Площадь расположена в исторической части города, с юго-восточной стороны от нагорной части Кремля. Она соединяет центральные улицы города: Большую Покровскую, Алексеевскую, Варварскую, Ульянова, Минина, Верхне-Волжскую набережную и Зеленский съезд. На площади расположено множество памятников архитектуры, университеты: Мининский, Лобачевский и медицинский, а также выставочный комплекс нижегородского художественного музея, памятники Кузьме Минину и Валерию Чкалову. Площадь является проезжей, движение автотранспорта по ней перекрывается в праздничные дни и на время проведения мероприятий. За свою многовековую историю площадь не раз меняла свои названия. Она называлась Верхнепосадской и Верхнебазарной, по своему расположению и назначению; Благовещенской в честь одноименного собора перед Дмитриевской башней (собор не сохранился). Окончательное название площади сформировалось в 1943 году после установки памятника Кузьме Минину.";Площадь Минина и Пожарского;5;;56.327266;44.006597
157;Нижний Новгород, Рождественская улица, 34А;POINT (43.985146 56.327401);Храм в честь Собора Пресвятой Богородицы, один из красивейших в православном мире, он был построен в 1719 году купцами Строгановыми. Это каменная пятиглавая церковь с отдельно стоящей высокой колокольней, ее венчают яркие праздничные купола. Храм является памятником архитектуры федерального значения. Церковь чудом сохранила богатое убранство. Иконостас с тончайшей резьбой и уникальной живописью являются одним из красивейших в России. Ее часто называют Рождественской, поскольку рядом когда-то располагалась древняя церковь в честь Рождества Пресвятой Богородицы. В храме располагаются такие святыни: иконы с частицами мощей преподобного Серафима Саровского, митрополита Филарета Московского, оптинских старцев в ковчеге рядом с иконостасом, а также Державная икона Божией Матери. В 1930-е годы Рождественская церковь была закрыта большевиками. Во время Великой Отечественной войны в ее помещении находился аптечный склад, благодаря которому почти полностью сохранился уникальный иконостас — 43 из 46 икон конца XVII столетия. В 1960-е годы в храме располагался один из филиалов краеведческого музея. Храм в честь Собора Пресвятой Богородицы был освящен в 1719 году. В 1722 году на Божественной литургии в нем присутствовал император Петр I. После его посещения церковь закрыли. По одной из версий причиной этого стало то, что в двух иконах император узнал свои, которые он заказывал для Петропавловского собора Санкт-Петербурга. Повторное освещение Рождественской церкви состоялось в 1993 году. Церковь Собора Пресвятой Богородицы принадлежит к архитектурному стилю, который принято называть «строгановским барокко». Храм характеризуется отличается особой монументальностью образа, изысканным пышным декоративным убранством. В наружном декоре Рождественской церкви прослеживаются ягодно-цветочные мотивы. Среди декоративных деталей встречаются витые колонки, характерные для западноевропейского барокко. Белокаменные украшения достигают кульминации на южной и северной стенах церкви. Наличники окон украшены витыми колонками, полностью покрытыми резными гроздьями винограда. Над проходной аркой в нижнем ярусе колокольни укреплена икона Божией Матери «Одигитрия». Ее украшает лепной балдахин с преобладающими растительно-фруктовыми элементами.;Собор Пресвятой Богородицы (Рождественская церковь);5;https://nn-grad.ru/audiogidy/;56.327401;43.985146
158;Нижний Новгород, парк Победы;POINT (44.03562 56.328131);Парк Победы он же Нижегородский городской музей техники и оборонной промышленности находится на Нижне-Волжской набережной в районе Гребного канала. Он заложен в 1985 году в честь 40-летия победы в Великой Отечественной войне. В коллекции музея насчитывается 49 единиц военной техники. Основу экспозиции составляют машины местного производства. Одна группа экспонатов — техника времен Великой Отечественной войны, вторая — техника, созданная в послевоенное время, в том числе находящаяся на вооружении в данный момент России и других стран. Постоянно действующие экспозиции музея: выставка военной техники, «Солдатский привал», «Рубеж обороны». На аллее ветеранов в парке Победы установлены мемориальные знаки в память о нижегородцах, погибших во время войны. А также памятники: «Батя» в честь знаменитого генерала, командующего воздушно-десантными войсками Василия Маргелова, и «Побег из ада», посвященный подвигу солдат, сумевших сбежать с секретного немецкого острова Узедом. На открытых площадках парка проводятся военно-патриотические мероприятия, а также импровизированные сражения участников клуба исторической реконструкции.;Парк Победы;2;;56.328131;44.03562
159;Нижний Новгород, улица Заломова;POINT (43.981707 56.324227);Пешеходный мост через Сергиевский овраг построен в 1968 году и соединяет набережную Федоровского и улицу Заломова. Это излюбленная смотровая площадка нижегородцев и гостей города, с которой открывается прекрасный вид на Оку, Нижегородскую ярмарку и Канавинский мост и, конечно, на великолепные нижегородские закаты.;Пешеходный мост;5;;56.324227;43.981707
160;Нижний Новгород, Ивановский съезд, 1б;POINT (43.998108 56.329811);Тактильный макет достопримечательности для лиц с ограниченными возможностями здоровья. Для достоверной передачи деталей и соблюдения масштабов при создании макетов использовалась технология лазерного сканирования памятников архитектуры. На объектах есть историческая справка, QR-код и текст Брайля, который помогает узнавать о достопримечательностях Нижнего Новгорода людям с нарушениями зрения.;Макет церкви Иоанна Предтечи;3;https://nn-grad.ru/audiogidy/;56.329811;43.998108
161;Нижний Новгород, Большая Покровская улица, 43;POINT (43.995142 56.318104);Дом на улице Большая Покровская, 43 известен как Музей истории художественных промыслов Нижегородской области. Здание было построен в 1975 году по проекту архитектора Юрия Осина. Его фасад сверху украшен мозаичным фризом из смальты. На красочной мозаике изображены персонажи народного искусства. На 4 этаже постройки расположен непосредственно Музей художественных промыслов, на первом — сувенирный магазин. В этом же здании находятся Горьковское проектно-конструкторское бюро при Управлении художественными промыслами, мастерские и различные офисы. В экспозиции музее представлено около 4 тысяч произведений декоративно-прикладного творчества нижегородских мастеров. Благодаря интерьерам музея, посетители могут ощутить атмосферу крестьянского жилища, купеческого дома, сельского храма. Магазин художественных промыслов существует уже более 40 лет и также является достопримечательностью города. Здесь можно приобрести продукцию самых известных промысловиков России.;Художественные промыслы;5;;56.318104;43.995142
162;Нижний Новгород, Канавинский район, жилой район Мещерское Озеро, Мещерский бульвар, 10;POINT (43.932141 56.340829);Театр «Вера» расположен в Канавинском районе Нижнего Новгорода по адресу Мещерский бульвар, дом 10. Это один из самых молодых театров города. Его художественным руководителем с самого момента создания является Вера Александровна Горшкова, заслуженный работник культуры РФ. В 1976 г. Вера Александровна Горшкова создала «Театральную студию будущего», которая дала рождение новому камерному театру в Нижнем Новгороде. В 1991 г. театр получил профессиональный статус, а студийцы — образование в Самарской академии культуры и искусств. Репертуар театра разнообразен. Основной жанр спектаклей – сказка, наполненная искренней верой в чудо, торжество любви, победу добра. Именно этой верой театр «Вера» щедро делится со своими зрителями.;Театр «Вера»;8;;56.340829;43.932141
163;Нижний Новгород, площадь Максима Горького;POINT (43.99125 56.313954);Вторая площадь на исторической оси Нижнего Новгорода: Минина - Горького - Лядова и треугольника Минина - Горького - Свободы. Между площадью Горького и Минина проходит пешеходная улица Большая Покровская. На самой площади располагается сквер с памятником Горькому в нём. От площадь так же отходит несколько исторических улиц, представляющих интерес для туристов: Горького, Новая, Костина, Маслякова, Звездинка.;Сквер Горького;2;;56.313954;43.99125
164;Нижний Новгород, Верхневолжская набережная, 7;POINT (44.016119 56.329307);Тактильный макет достопримечательности для лиц с ограниченными возможностями здоровья. Для достоверной передачи деталей и соблюдения масштабов при создании макетов использовалась технология лазерного сканирования памятников архитектуры. На объектах есть историческая справка, QR-код и текст Брайля, который помогает узнавать о достопримечательностях Нижнего Новгорода людям с нарушениями зрения.;Макет музея-усадьбы Рукавишниковых;3;https://nn-grad.ru/audiogidy/;56.329307;44.016119
165;Нижний Новгород, Почаинская улица, 17И;POINT (43.994816 56.32722);Созданное художниками для художников, пространство «1221» (которое чаще называют Izzi) работает во многом как альтернативная площадка для экспонирования для тех, кто не может или по каким-то причинам не хочет быть аффилированным с галереями. Соседствует Izzi с другими культурными проектами — штаб-квартирой The Village Нижний Новгород и открытой оранжереей «Парник».;Студия 1221;7;;56.32722;43.994816
166;Нижний Новгород, улица Максима Горького, 145;POINT (44.0106 56.31677);Нижегородский государственный ордена «Знак Почета» театр юного зрителя — это еще один воплотившийся творческий замысел выдающегося театрального деятеля, народного артиста РСФСР, награжденного орденом В. И. Ленина, Героя Труда — Н. И. Собольщикова-Самарина. По его призыву группа молодых артистов драматического театра совершенно самостоятельно подготовила для юных нижегородцев дневные представления, приобщая подрастающее поколение к театральному искусству, развивая эстетический вкус и нравственно воспитывая. Располагается по адресу Максима Горького, д. 145.;Театр юного зрителя;8;;56.31677;44.0106
167;Нижний Новгород, площадь Революции, 2А;POINT (43.945901 56.321901);Московский вокзал Нижнего Новгорода относится к Горьковской железной дороге. Расположен он в четырех километрах от центра, на площади Революции, 2. Ж/д Нижнего Новгорода был открыт в 1862 году. Долгое время он назывался Горький-Московский, и лишь с июля 2010 года название было изменено на Нижний Новгород-Московский. В 2002 году транспортный узел был модернизирован.;Железнодорожный вокзал;5;;56.321901;43.945901
168;Нижний Новгород, улица Короленко;POINT (43.996673 56.312682);Около ста лет назад деревянная застройка являлась лицом города и составляла значительную часть всех зданий Нижнего Новгорода. К настоящему моменту в столице Приволжья уцелела лишь небольшая территория, где сохранились не просто дома из дерева, а целые фрагменты русского деревянного зодчества. С кварталом Церкви Трех святителей на авторской экскурсии познакомил всех желающих градозащитник, координатор движения «Деревянные города» Стас Дмитриевский.;Квартал трех Святителей;5;;56.312682;43.996673
169;Нижний Новгород, площадь Минина и Пожарского;POINT (44.005918 56.326101);Старейший фонтан Нижнего Новгорода стоит прямо в сердце города – в сквере на площади Минина и Пожарского. Впервые вода в чёрную чугунную чашу фонтана потекла ещё 1 октября 1847 года. Тогда объект стал первым централизованным источником водоснабжения для горожан. Проект водопровода был разработан инженером-гидротехником, а сам фонтан изготовили на заводе Шепелевых в Выксе. Тогда фонтан обеспечивал подачу 40 тысяч ведер воды в сутки. В нынешнее время фонтан на площади Минина и Пожарского оснащён современным водопроводом, световой подсветкой и музыкальным сопровождением.;Фонтан на пл. Минина;2;;56.326101;44.005918
170;Нижний Новгород, площадь Маркина, 15А;POINT (43.987908 56.32971);Белоснежное здание со шпилем у места слияния Оки и Волги — нижегородский Речной вокзал. Место на Нижне-Волжской набережной выбрано не случайно: многие столетия напротив Стрелки располагались пристани, к которым причаливали военные, торговые и пассажирские суда. Вокзал был построен в 1964 г. , и вплоть до 2001-го здесь кипела жизнь: в кассах продавались билеты на скоростные местные маршруты, а горожане и туристы коротали время в залах ожидания. В начале двухтысячных инфраструктура пришла в упадок, а Речной вокзал перестал использоваться для обслуживания пассажиров. Собственного сайта у него нет. После реконструкции в 2003 г. его помещения заняла администрация судоходной компании «Волжское пароходство» (внутренние водные грузоперевозки). На входе осуществляется пропускной режим, поэтому попасть в здание могут только сотрудники компании. Посетить по предварительной записи можно только расположенный на 4 этаже исторический музей «Волжского пароходства», который работает по будням с 08: 00 до 17: 00 (в пятницу до 16: 00).;Бывший речной вокзал;5;;56.32971;43.987908
171;Нижний Новгород, Рождественская улица, 2;POINT (43.99735 56.329512);Дом был построен в период между 1880 и 1885 (по другим данным — 1883) годами. По замыслу, дом должен был стать приютом для «бывших людей». Сам дом располагался между двумя крайностями: с одной стороны от него была купеческая улица, где вершились миллионные сделки, с другой — «Миллиошка», где скитались в основном люди, оказавшиеся «на дне» жизни. Ночлежный дом Бугровых послужил прототипом для ночлежки из пьесы Горького «На дне», однако реальный быт ночлежки отличался от описанного в пьесе, а на фасаде здания была размещена надпись «Водки не пить! Песен не петь! Вести себя тихо! ».;Ночлежный дом Бугрова;5;;56.329512;43.99735
172;Нижний Новгород, Кремль, 6;POINT (44.006598 56.328137);Волго-Вятский филиал Государственного музея изобразительных искусств имени А. С. Пушкина — одна из ведущих региональных институций. Ее специфика — демонстрация современного искусства в широком контексте мировой культуры. С 1997 года реализует многочисленные выставочные и междисциплинарные проекты, а также просветительские, детские и инклюзивные программы. С 2011 года располагается в здании Арсенала Нижегородского кремля, памятнике архитектуры позднего классицизма. Благодаря зданию за институцией среди публики закрепилось название — Арсенал. В 2020 году Арсенал стал филиалом Государственного музея изобразительных искусств имени А. С. Пушкина. Это объединение создает и развивает новую творческую среду, которая работает с уникальной идентичностью территории, представляет современный художественный процесс и интегрирует классическое искусство в актуальный контекст.;Арсенал;7;;56.328137;44.006598
173;Нижний Новгород, площадь Маркина, 15А;POINT (43.987898 56.329641);5 июля 2021 года свои двери открыло выставочное пространство «Река-Река», созданное в здании бывшего Речного вокзала, – главном офисе Волжского пароходства. Новая культурная площадка рассказывает об истории развития одной из крупнейших судоходных компаний России и отрасли судоходства в целом. Особенность созданного Волжским пароходством выставочного пространства — это общедоступность площадки для нижегородцев и гостей города, а также открытость проекта «Река-Река» к сотрудничеству с другими музеями, независимыми художниками и культурными проектами. Организация очных экскурсий помогает ближе познакомить всех желающих с историей судоходства России, а также подробнее узнать о профессиях в данной сфере.;Центр Река-река;7;;56.329641;43.987898
174;Нижний Новгород, Верхне-Волжская набережная, 2Б;POINT (44.010318 56.329567);Дом Архитектора — это креативное пространство на пересечении разных видов деятельности, связанных с архитектурой, живой музей о прошлом, настоящем и будущем города. На протяжении нескольких десятилетий Дом Архитектора способствовал развитию архитектурного сообщества, был площадкой для обмена опытом, реализации различных культурных проектов и репрезентации архитекторами своей деятельности горожанам. Сегодня Дом Архитектора находится в процессе перезагрузки как физической, так и смысловой: в настоящее время здесь производится ремонт интерьеров и фасадов, а также формируется новая концепция с участием разных возрастных групп архитекторов, заинтересованных сообществ, организаций и бизнеса.;Дом Архитектора;7;;56.329567;44.010318
175;Нижний Новгород, историческая территория Старый Нижний Новгород;POINT (44.00945 56.330336);Чкаловская лестница — монументальное сооружение в историческом центре города, соединяющая Верхне-Волжскую и Нижне-Волжскую набережные. Торжественное открытие лестницы состоялось 24 июля 1949 года и было приурочено к празднованию Дня Военно-Морского флота. Официальное название лестницы — «Волжская», однако народное «Чкаловская» вытеснило его и прочно закрепилось в истории города. Лестница начинается от смотровой площадки у памятника Чкалову рядом с Георгиевской башней кремля. Она построена в виде восьмёрки, в ней 667 ступеней, если считать обе стороны круговых пролетов. В местах пересечений боковых спусков имеются две смотровые площадки. Чкаловская лестница (изначально называлась Сталинградской) была заложена в 1943 году в честь победы в Сталинградской битве. Идея строительства принадлежала председателю Горьковского горисполкома Александру Шульпину. Он же добился в Москве выделения соответствующего бюджета. Был объявлен конкурс, в котором победил архитектор Александр Яковлев со своим проектом титанической «восьмерки», самой высокой на тот момент лестницы в Советском Союзе. Согласно первоначальному плану, предполагалось украсить лестницу фигурами вождей и огромным изображением Ордена Ленина, но от этой идеи впоследствии отказались — военное время требовало экономии средств и сил.;Чкаловская лестница;5;https://nn-grad.ru/audiogidy/;56.330336;44.00945
176;Нижний Новгород, Суетинская улица, 29;POINT (43.985798 56.327001);Жилой дом был построен во второй половине XIX века и имеет более поздний пристрой. Его архитектурный стиль — классицизм. В 2015 году дом был включен в единый реестр объектов культурного наследия. Он находится в безвозмездном пользовании Нижегородской епархии.;Дом на Суетинской, 29;5;;56.327001;43.985798
177;Нижний Новгород, Почаинская улица, 27;POINT (43.995179 56.325473);Около Почаинского съезда находится один из древнейших архитектурных памятников каменной жилой застройки Нижнего Новгорода — палаты Чатыгина, более известные как Домик Петра I. Именно здесь, предположительно, впервые останавливался Петр I во время своего приезда в Нижний Новгород. Сейчас Домик Петра представляет собой культурную и историко-архитектурную ценность, поскольку является редким типом каменного жилого дома XVII века;Палаты Чатыгина (Домик Петра I);5;;56.325473;43.995179
178;Нижний Новгород, Алексеевская улица, 7;POINT (44.004784 56.323963);Сегодня «Рекорд» позиционирует себя не просто как кинотеатр, киноцентр, а как настоящий культурный центр Нижнего Новгорода. Центр культуры «Рекорд» принимал на своей площадке фестиваль детского и семейного кино «Детский КиноМай», фестиваль нового российского кино «Горький fest», фестиваль веб-сериалов «Realist Web Fest», фестиваль документального кино о культуре «BeatWeekend 2021». Масштабные ремонтно-реставрационные работы «Рекорда» прошли во внутренних помещениях и на фасаде, восстановили ротонду, заменили все инженерные коммуникации. Еще в конце 2017 года в Центре культуры «Рекорд» установили новое кинопроекционное оборудование. В 2021 году в здании было создано три выставочных пространства, киноконцертный зал на 260 мест, зоны лектория и коворкинга, кафе, обновлен интерьер, установлено современное световое и звуковое оборудование.;Центр Рекорд;7;;56.323963;44.004784
179;Нижний Новгород, Кремль, 2Г;POINT (44.003482 56.330799);Зачатская или Зачатьевская башня расположена между Белой и Борисоглебской башнями. Своё название башня получила благодаря женскому монастырю в честь Святого Непорочного Зачатия Пресвятой Богородицы. Монастырь находился у подножия кремля на берегу Волги. Он был возрождён, и существует сегодня под именем Крестовоздвиженский. Рядом с башней находился Живоносный источник, поэтому ее еще называли Живоносной. Зачатьевская башня выполняла функция проезда из Кремля. Через ее ворота можно было быстро и напрямую выйти к Волге. Зачатьевская башня — восстановленный исторический объект. Еще в Писцовой книге 1622 года писали, что стены башни находятся в плохом состоянии. В 18 веке разрушение продолжилось, и в 1750-х годах в результате оползня башня окончательно обрушилась. В 1830 году был засыпан сход к Живоносному источнику. В 1961 году реставраторами были обнаружены остатки древнего строения. Нижегородский архитектор Святослав Агафонов воссоздал в чертежах исторический облик башни. Восстановительные работы по его проекту начались лишь в 2011 году. Полное восстановление башни закончилось в 2012 году. Ее открытие было приурочено к 400-летнему юбилею нижегородского ополчения. Сейчас в помещениях башни находятся музейные экспозиции. Подлинное сооружение до наших дней не сохранилось. Искусство древних строителей оказалось бессильно против «водяного подмою». Грунтовые воды подмыли фундамент и под собственным многотонным весом башня и прилегающие к ней стены начали проседать вниз. Попытки спасти постройки не дали результатов. В 1785 г. северная часть стены с Зачатской и Борисоглебской башнями была разобрана. То, что мы видим перед собой сейчас — это реконструкция 2012 г. Она была сделана на основании археологических раскопок и исторических документов, поэтому максимально точно повторяет оригинальное сооружение. Есть легенда и о строительстве самой Зачатьевской башни — легенда о Жёваном Тате. Так на русский манер — Жёваный Тать — нижегородцы называли итальянца Джованни Татти, помощника архитектора Пьетро Франческо, создателя нижегородского кремля. Это был настоящий головорез, заморский хвастун и задира. И так случилось, что и он, и искусный новгородский каменщик Данило Волховец, который прибыл на строительство нижегородского кремля, полюбили одну красну девицу Настасью Горожаночку. Долго ли, коротко ли, но подлость Жеваного Татя привела к схватке, в которой погибли оба соперника. И тогда товарищи Данилы Волховца весь белый камень с берега Волги своими руками переносили, известь в яме замесили и трудились неистово, не жалея себя, возводя Белокаменную башню над могилой своего друга. А на полдень от нее, из кирпича кроваво-багряного другая башня росла, Зачатьевская. Под ней хвастун и богохульник итальяшка Тать лежал. Спустя много лет подточили подземные воды склон горы вместе с крепостью и башней Зачатия, чтобы сползли они к Волге оползнем. А башню Белокаменную не тронули, оставили памятником над могилой мастера, сложившего крепость нижегородскую.;Зачатьевская башня;5;;56.330799;44.003482
180;Нижний Новгород, проспект Ленина, 95;POINT (43.894284 56.255139);Музей истории Горьковского автозавода был открыт в 1965 году по инициативе ветеранов предприятия. Богатая коллекция подлинных музейных предметов рассказывает об истории ГАЗа, в частности, и отечественного автомобилестроения, в целом. Уникальная экспозиция включает более 30 автомобилей марки «ГАЗ» и более 200 профильных экспонатов. Каждый автомобиль здесь — результат многолетних тщательных поисков и кропотливой реставрации. Все выставленные автомобили находятся в действующем состоянии и в любой момент могут отправиться в путь. Многие из местных машин — «звезды» кино и массовых мероприятий. Их снимали в таких фильмах как «Бриллиантовая рука», «Три тополя на Плющихе», «Берегись автомобиля», «Три плюс два» и других, используют для участия в парадах и выставках. Самым массовым автомобилем первой половины 20 века стала легендарная полуторка ГАЗ-АА. На Горьковском автозаводе было собрано более 800 тысяч этих автомобилей. Касса закрывается за час до окончания работы музея. Последняя пятница месяца – выходной день.;Музей «ГАЗ»;7;;56.255139;43.894284
181;Нижний Новгород, Варварская улица, 32;POINT (44.01194 56.322335);Переосмысленное пространство бывшего печатного цеха в здании «Нижполиграфа» площадью 1000 квадратных метров. Миссия проекта – сделать процесс представления медиаискусства в Нижнем Новгороде непрерывным, открыть диалог между широкой публикой и миром медиаискусства. Цех создан студией dreamlaser к 800-летию Нижнего Новгорода при поддержке АНО «Центр 800». Мультимедиа-арт-пространство находится в одном из бывших газетных цехов в здании «Нижполиграфа» (Нижний Новгород, Варварская ул. , 32). В 2019 году издательское производство там прекратилось, однако в запустении масштабная индустриальная площадка была недолго. Представителей творческого сообщества привлекало пространство оставленного цеха. В частности, арт-группа «Провмыза» осуществила в его стенах проект под названием Oratorium SARX SOMA при участии dreamlaser. Осенью 2020 года началась трансформация цеха в мультимедиа-арт-пространство.;ЦЕХ;7;;56.322335;44.01194
182;Нижний Новгород, Большая Покровская улица, 39Б;POINT (43.995828 56.31838);Нижегородский государственный академический театр кукол расположен в едином комплексе с детским кинотеатром «Орлёнок» по улице Большая Покровская, 39. Здание построено в 1912 году по проекту известного архитектора Федора Шехтеля. История городского театра кукол началась в 1929 году, когда в Нижнем Новгороде в Доме культуры имени Свердлова спектаклями «Выход Петрушки», «Негритенок Том» и «Степка — растрепка» открылся «Театр Петрушки». Именно так назывался тогда будущий театр кукол. В здание на Большой Покровской театр переехал лишь в 1979 году. В театре более 700 кукол, за годы существования поставлено более 300 спектаклей. С 1997 года Театр кукол носит звание академического. Театр кукол — один из двух кукольных театров России, который с 1997 года носит звание академического. Он был основан в 1929 году супругами Татьяной и Георгием Яворовскими. Нижегородский театр кукол является лауреатом Международных фестивалей в Венгрии, Франции, Испании, Бельгии. Куклы, созданные в мастерских театра, получили Диплом и Большую серебряную медаль на Всемирной выставке в Брюсселе, получили награды в Нью-Йорке, в Чехословакии, во Франции, а многие из них были приобретены Центральным музеем им. Бахрушина города Москвы.;Театр кукол;8;;56.31838;43.995828
183;Нижний Новгород, историческая территория Старый Нижний Новгород;POINT (44.00945 56.330336);Тактильный макет достопримечательности для лиц с ограниченными возможностями здоровья. Для достоверной передачи деталей и соблюдения масштабов при создании макетов использовалась технология лазерного сканирования памятников архитектуры. На объектах есть историческая справка, QR-код и текст Брайля, который помогает узнавать о достопримечательностях Нижнего Новгорода людям с нарушениями зрения.;Макет Чкаловской лестницы;3;https://nn-grad.ru/audiogidy/;56.330336;44.00945
184;Нижний Новгород, улица Белинского, 59/2;POINT (44.01701 56.315803);Нижегородский театр оперы и балета основан 1 июня 1935 года в реконструированном Народном доме, построенном в 1903 году при содействии Горького и Шаляпина. 24 октября 1935 года труппа показала публике свой первый спектакль — постановку оперы Бородина «Князь Игорь». В 1937 году театру присвоено имя А. С. Пушкина. Располагается в здании бывшего Народного Дома по адресу Белинского, дом 59. С 1986 года театр проводит Всероссийский Пушкинский фестиваль оперного и балетного искусства «Болдинская осень» — единственный в мире музыкальный фестиваль оперного и балетного искусства, посвящённый А. С. Пушкину. В его программе спектакли на пушкинские сюжеты и классика музыкального театра с участием звёзд мировой оперной и балетной сцены;Театр оперы и балета им. А. С. Пушкина.;8;;56.315803;44.01701
185;Нижний Новгород, Рождественская улица;POINT (43.99687 56.329867);Тактильный макет достопримечательности для лиц с ограниченными возможностями здоровья. Для достоверной передачи деталей и соблюдения масштабов при создании макетов использовалась технология лазерного сканирования памятников архитектуры. На объектах есть историческая справка, QR-код и текст Брайля, который помогает узнавать о достопримечательностях Нижнего Новгорода людям с нарушениями зрения.;Макет памятника Минину и Пожарскому;3;;56.329867;43.99687
186;Нижний Новгород, улица Октябрьской Революции, 23А;POINT (43.933623 56.308158);Нижегородская детская железная дорога, она же «Малая Горьковская», или как её часто называют просто ДЖД — одна из первых в России. Как и на любой другой ДЖД, мальчики и девочки обучаются здесь тонкостям работы с современной железнодорожной техникой. Юные работники, под чутким руководством старших, выполняют роли путейцев, машинистов и проводников. Дети от 8 до 18 лет управляют тепловозами в три смены. ДЖД в Нижнем Новгороде построена в 1939 году на южной стороне парка им. 1 Мая. После открытия она стала первой по протяженности и девятой по счету детской узкоколейкой в СССР. Дорога оснащалась самым передовым оборудованием и средствами связи. На территории имелись ремонтные мастерские и вагонное депо со смотровой ямой. В современной России таких дорог осталось 25. В настоящее время действуют 3 станции — «Родина», «Пушкино», «Счастливая». Протяжённость главных путей составляет 3, 2 км, общая протяжённость — 4, 1 км. Вагонный парк представлен двумя пассажирскими составами, по 6 вагонов в каждом, и двумя открытыми вагонами типа «Дилижанс». Локомотивный парк состоит из 3-х узкоколейных тепловозов и 1 паровоза.;Детская железная дорога;5;;56.308158;43.933623
187;Нижний Новгород, историческая территория Старый Нижний Новгород;POINT (43.998261 56.323799);Название лестница получила из-за соседства с одноименной площадью и Нижегородским академическим театром драмы имени Горького на ней. В 2014 году лестницу отреставрировали. В ходе ремонта был заменён фундамент, установлены новые ступени, проложены водоотводные лотки, установлены новые декоративные элементы, восстановлено освещение. С лестницы открывается удивительной красоты вид на Лыкову Дамбу.;Театральная лестница;5;;56.323799;43.998261
188;Нижний Новгород, набережная Лыковая Дамба, 2А;POINT (43.998344 56.322763);Музей Н. А. Добролюбова — единственный в мире музей литературного критика и писателя Николая Александровича Добролюбова, расположенный в Нижнем Новгороде. Музей располагается в двух зданиях, составляющих ансамбль усадьбы Добролюбовых. Дома построены в 1838 году по проекту известного архитектора Е. И. Кизеветтера и являются памятниками истории и культуры федерального значения. Главным домом музея является двухэтажный флигель, где жила семья Добролюбовых. Здесь прошли детство и юность писателя. В доме-музее восстановлена подлинная обстановка, большая часть которой состоит из мемориальных вещей.;Музей Н. А. Добролюбова;7;;56.322763;43.998344
189;Нижний Новгород, Георгиевский съезд;POINT (44.009444 56.329995);Тактильный макет достопримечательности для лиц с ограниченными возможностями здоровья. Для достоверной передачи деталей и соблюдения масштабов при создании макетов использовалась технология лазерного сканирования памятников архитектуры. На объектах есть историческая справка, QR-код и текст Брайля, который помогает узнавать о достопримечательностях Нижнего Новгорода людям с нарушениями зрения.;Макет памятника Чкалову;3;https://nn-grad.ru/audiogidy/;56.329995;44.009444
190;Нижний Новгород, улица Семашко, 19;POINT (44.018493 56.322773);Музей был открыт в 1971 году в доме, в котором Максим Горький жил с 1902 по 1904 год. Горький снял квартиру в доме Н. Ф. Киршбаума в сентябре 1902 года и поселился здесь с семьёй. К этому времени он стал известным писателем, в 1903 и 1904 годах ему была присуждена Грибоедовская премия, он был ведущим автором репертуара Московского Художественного театра, его произведения переведены на 16 языков. Здесь Горький завершил пьесу «На дне» и пережил её успех. В этом доме в гостях у Горького бывали писатели Леонид Андреев и Евгений Чириков, певец Фёдор Шаляпин, различные артисты.;Музей Горького;7;;56.322773;44.018493
191;Нижний Новгород, Автозаводский район, жилой район Соцгород, микрорайон Соцгород-1, проспект Октября, 21;POINT (43.865354 56.253957);Монументальные многоквартирные здания, расположившееся в Автозаводском районе – Бусыгинский дом или Серобусыгинский квартал. Считается самым длинным домом Нижнего Новгорода — в нем 450 квартир и 59 подъездов. К 1939 году в Горьком был построен уникальный жилой дом на 450 квартир, на первых этажах располагались магазины, аптека, взрослая и детская библиотеки, сберкасса и кафе. В огромном внутреннем дворе была своя инфраструктура, установлены скамейки, качели, зоны отдыха для жителей.;Старобусыгинские дома;5;;56.253957;43.865354
192;Нижний Новгород, ул. Большая Покровская, 26;POINT (43.998836 56.320128);Тактильный макет достопримечательности для лиц с ограниченными возможностями здоровья. Для достоверной передачи деталей и соблюдения масштабов при создании макетов использовалась технология лазерного сканирования памятников архитектуры. На объектах есть историческая справка, QR-код и текст Брайля, который помогает узнавать о достопримечательностях Нижнего Новгорода людям с нарушениями зрения.;Макет здания Госбанка;3;https://nn-grad.ru/audiogidy/;56.320128;43.998836
193;Нижний Новгород, ул. Большая Покровская, 3;POINT (44.003741 56.325529);Тактильный макет достопримечательности для лиц с ограниченными возможностями здоровья. Для достоверной передачи деталей и соблюдения масштабов при создании макетов использовалась технология лазерного сканирования памятников архитектуры. На объектах есть историческая справка, QR-код и текст Брайля, который помогает узнавать о достопримечательностях Нижнего Новгорода людям с нарушениями зрения.;Макет Дворца труда;3;https://nn-grad.ru/audiogidy/;56.325529;44.003741
194;Нижний Новгород, улица Чаадаева, 17;POINT (43.846308 56.331278);Дом Культуры им. Серго Орджоникизде — центр культурной жизни заречной части города, а именно — авиастроительного поселка Московского района. Здесь организован отдых и культурный досуг для всех желающих: в ДК действует 16 творческих коллективов и любительских объединений.;Дворец Культуры им. С. Орджоникидзе;6;;56.331278;43.846308
195;Нижний Новгород, Черниговская улица, 14;POINT (43.973421 56.320793);Архитектурный ансамбль в историческом центре Нижнего Новгорода. Предположительно, автор проектов зданий — городовой архитектор В. М. Лемке. Памятник является неотъемлемым элементом исторической застройки улицы Черниговской — правобережной набережной реки Оки. Представляет собой редкий для Нижнего Новгорода образец городской усадьбы в кирпичном стиле с богатым, выразительным декором фасадов. В комплекс бывшей усадьбы входят два сохранившихся строения: главный дом и флигель.;Усадьба В. Е. Кожевникова;5;;56.320793;43.973421
196;Нижний Новгород, пр. Гагарина, 214 (домофон 3)      ;POINT (43.95056 56.232419);Музей А. Д. Сахарова был открыт в г. Горький 18 мая 1991 года. Музей состоит из двух частей. Первая часть — экспозиционный зал, в котором посетители могут познакомиться с материалами, рассказывающими обо всей жизни А. Д. Сахарова. И вторая часть — мемориальная квартира, представляющая собой номер специальной гостиницы, в которой всемирно известный ученый и гражданин нашей страны провел в ссылке семь долгих лет своей жизни. Наполненные казенной, гостиничной мебелью комнаты, какими увидел их Сахаров, воссоздают быт и ауру 1980-х годов, возвращая посетителей музея в то время. Для маломобильных граждан: в музее размещен пандус для заезда в подъезд, а также установлен подъемник.;Музей А. Д. Сахарова;7;;56.232419;43.95056
197;г. Нижний Новгород, ул. Ванеева, д.199;POINT (44.034095 56.293297);Автор мозаики — Станислав Лотонин. Была создана в 1978 году. Входит в реестр произведений советского монументально-декоративного искусства Нижегородской области;Мозаика «Мы учимся»;10;;56.293297;44.034095
198;Нижний Новгород, Революционная ул., 20;POINT (43.954917 56.31855);Нижегородский планетарий имени Г. М. Гречко (ранее — Горьковский планетарий) — планетарий, который был открыт в СССР. До 2005 года располагался в нагорной части Нижнего Новгорода (Горького) на территории Благовещенского монастыря, в здании Алексеевской церкви. После возвращения храма Русской православной церкви было принято решение построить новый планетарий на противоположном берегу Оки, в Канавинском районе. Под строительство был приспособлен бывший купеческий дом, стоявший напротив здания Нижегородского цирка. На данный момент здание планетария находится на реконструкции, а сеансы проходят в Мининском университете и Манеже Нижегородского кремля.;Нижегородский планетарий им. Г. М. Гречко;6;;56.31855;43.954917
199;Нижний Новгород, ул. Октябрьской Революции, 96/21;POINT (43.940846 56.301048);Театр музыкально-пластической драмы «Преображение» был создан в Нижнем Новгороде в 1990 году как творческая лаборатория, экспериментирующая в области пантомимы и музыкальной пластики. В 2002 году театр получил статус муниципального, а в 2009 году и своё помещение. Все эти годы руководителем труппы «Преображения» был и остается главный режиссер Анатолий Малофеев. Театр «Преображение» в Нижнем Новгороде — единственный в нашем регионе профессиональный театр, развивающий жанр музыкально-пластической драмы. При этом, помимо пластических, в афише театра присутствуют и драматические, и музыкальные спектакли. Сложился разнообразный детский репертуар, проводятся Новогодние праздники.;Театр музыкально-пластической драмы «Преображение»;8;;56.301048;43.940846
200;Нижний Новгород, Юбилейный бул., 32;POINT (43.862783 56.343553);Создан в 1991 Владимиром Тимофеевичем Степановым. Основу труппы составили студенты и выпускники Нижегородской государственной консерватории им. М. И. Глинки. Репертуар первоначально включал оперную классику («Фауст» Ш. Гуно, «Севильский цирюльник» Дж. Россини, «Кармен» и «Искатели жемчуга» Ж. Бизе, «Пиковая дама» П. Чайковского) и оперетты («Севастопольский вальс» К. Листова, «Горячая кровь» И. Штрауса). В 1997 впервые был поставлен мюзикл «Призрак оперы» Э. Л. Уэббера. В настоящее время театр работает в помещении Дома Культуры «Красное Сормово».;Камерный музыкальный театр им. В. Т. Степанова;8;;56.343553;43.862783
201;г. Нижний Новгород, станция метро «Двигатель Революции»;POINT (43.921408 56.277315);Автор мозаики — Владимир Логинов. Была создана в 1985 году. Входит в реестр произведений советского монументально-декоративного искусства Нижегородской области;Мозаика «Звезда Революции»;10;;56.277315;43.921408
202;г. Нижний Новгород, ул.Адмирала Нахимова, д.10А(колледж);POINT (43.9238 56.269486);Авторы мозаики — Дмитрий Арсенин и Анатлоий Павлов. Была создана в 1971 году. Входит в реестр произведений советского монументально-декоративного искусства Нижегородской области;Мозаика «Дизелестроители»;10;;56.269486;43.9238
203;г. Нижний Новгород, ул. Большевистская, д.4;POINT (43.870269 56.340984);Авторы мозаики — Дмитрий Арсенин и Анатолий Павлов. Были созданы в 1964 году. Входит в реестр произведений советского монументально-декоративного искусства Нижегородской области;Мозаики «Солнце», «Спутник», «Планета», «Голубь»;10;;56.340984;43.870269
204;г. Нижний Новгород, ул. Ванеева, д.82;POINT (44.033942 56.299271);Автор мозаики — Валентин Любимов. Была создана в 1966 году. Входит в реестр произведений советского монументально-декоративного искусства Нижегородской области.;Мозаика «Готовимся в полёт»;10;;56.299271;44.033942
205;г. Нижний Новгород, ул. Юлиуса Фучика, д.23 А ;POINT (43.875892 56.233559);Автор мозаики неизвестен. Была создана в 1982 году. Входит в реестр произведений советского монументально-декоративного искусства Нижегородской области;Мозаика «Плодородие»;10;;56.233559;43.875892
206;Нижний Новгород, ул. Котова, 2;POINT (43.830118 56.378864);Общественно-досуговый центр «Надежда» основан в августе 2001 г. и располагается в историческом месте — в поселке Копосово Сормовского района г. Н. Новгорода. В центре действуют 30 кружков и секций, в том числе 10 объединений в филиале ОДЦ «Надежда». Значительную часть деятельности учреждения занимает организация зрелищно-развлекательных программ. Опираясь на авторскую разработку сценариев, эксклюзивный подход к музыкальному материалу, в ОДЦ «Надежда» успешно реализовываются театрализованные программы.;Общественно-досуговый центр «Надежда»;6;;56.378864;43.830118
207;Нижегородская область, Дзержинск;POINT (43.543545 56.193396);Шу́ховская ба́шня на Оке́ — единственная в мире гиперболоидная многосекционная опора линии электропередачи, выполненная в виде несущей сетчатой оболочки. Расположена примерно в 12 км от города Дзержинск на левом берегу Оки, за посёлком Дачный. Данное сооружение, высота которого составляет 128 м, является одной из двух сохранившихся в России высотных многосекционных гиперболоидных конструкций инженера В. Г. Шухова, вторая — Шуховская телебашня на Шаболовке в Москве. Шуховская башня на Оке построена через семь лет после башни на Шаболовке, признаётся западными специалистами более совершенной и достойной внесения в список Всемирного наследия.;Шуховская башня на Оке;5;;56.193396;43.543545
208;Нижний Новгород, площадь Ленина;POINT (43.959556 56.326014);Памятник авторства скульптора Юрия Нероды и архитекторов Вадима Воронкова и Юрия Воскресенского был открыт 19 апреля 1970 года в ознаменование 100-летия со дня рождения Ленина. Площадь, на которой был установлен памятник, создавалась в том числе и непосредственно жителями города. Это крупнейший памятник Владимиру Ленину в Нижнем Новгороде. Он представляет собой 17-метровую бронзовую скульптуру Ленина на пьедестале из серого гранита. Левую руку фигура Владимира Ильича прижимает к груди, а правой указывает дорогу всем строителям социализм.;Памятник Владимиру Ленину;1;;56.326014;43.959556
209;Нижний Новгород, Октябрьская улица, 9Б;POINT (44.00199 56.321791);Галерея 9Б открылась 16 марта 2018 года в Нижнем Новгороде. Основатели - коллекционеры искусства Георгий Смирнов и Елена Тальянская. Это уютное двухэтажное пространство в кирпичном здании, построенном в дореволюционную эпоху. Оно расположено в центре, исторической части, неподалеку от главной пешеходной улицы Большая Покровская. Рядом расположен сквер имени Свердлова - одно из главных публичных мест города, где регулярно проводятся фестивали, концерты, кинопоказы, вечеринки, барахолки и художественные события.;Галерея 9Б;7;;56.321791;44.00199
210;Нижний Новгород, Сормовский парк культуры и отдыха;POINT (43.856436 56.339257);Расположен в Сормовском районе. Центральный вход — со стороны ул. Энгельса, где установлен памятник СПК Метеор. Парк открылся в 1935 году, и носил название «Парк культуры и отдыха им. А. А. Жданова» В конце 1970-х гг. был переименован в Сормовский парк культуры и отдыха. Одна из достопримечательностей Сормовского парка — стела «Славной памяти революционеров-сормовичей», установленная на месте проходивших в начале 20 века нелегальных собраний сормовских рабочих (автор А. Елизаров). Площадь Сормовского парка — 86 га.;Сормовский парк;2;;56.339257;43.856436
211;Нижний Новгород, Черниговская улица, 4;POINT (43.977315 56.324328);Историческое здание — объект культурного наследия Российской Федерации. Дом А. Л. Барышевой — памятник градостроительства и архитектуры в историческом центре Нижнего Новгорода. Построен в 1837–1839 годах. Автор проекта — первый городской архитектор Нижнего Новгорода Г. И. Кизеветтер.;Дом А. Л. Барышевой;5;;56.324328;43.977315
212;Нижний Новгород, Нижегородский район, Крутой переулок, 7;POINT (43.990399 56.325792);Памятник градостроительства и архитектуры в историческом районе Започаинье (Ильинская слобода) Нижнего Новгорода. Построены в 1676 году. Вместе с церковью Успения Божией Матери составляют архитектурный ансамбль посадской застройки Нижнего Новгорода XVII века. Историческое здание по адресу Крутой переулок, 7 сегодня — объект культурного наследия Российской Федерации. В настоящий период палаты имеют два этажа, но изначально над каменной частью был надрублен как минимум ещё один бревенчатый этаж, так как считалось, что жить в толстостенных кирпичных зданиях вредно для здоровья. Исторических данных о деревянной части палат не сохранилось, поэтому во время реставрации её не восстанавливали.;Палаты Афанасия Олисова;5;;56.325792;43.990399
213;Нижний Новгород, Волжская набережная;POINT (43.946588 56.343853);Волжская набережная начинается от улицы территории Стрелки — места слияния рек Оки и Волги, продолжается вдоль территории стадиона «Нижний Новгород», микрорайонов «Седьмое небо» и «Мещерское озеро». До 2017 года набережная вплотную подходила к дворовым территориям, имела пешеходную зону и многочисленные спуски к песчаному берегу. В 2017 году Волжская набережная попала в программу благоустройства в рамках подготовки города к Чемпионату мира по футболу в 2018 году. После этого территорию переформатировали — появилась четырехполосная проезжая часть, огороженная прогулочная зона с велодорожками, парковочные зоны и новое освещение. В 2017 году набережную продолжили вглубь микрорайона «Мещерское озеро» на улицу Карла Маркса. На набережной расположены такие знаковые объекты, как здание Горьковской базы «Главсоль» (сейчас — ресторан «Соляная Биржа»), стадион «Нижний Новгород», ТРЦ «Седьмое небо».;Волжская набережная;4;;56.343853;43.946588
214;Нижний Новгород, Автозаводский район, микрорайон Северный;POINT (43.875303 56.26264);Парк был заложен в 1998 году на месте пустыря и небольшого озера. Открыли его в июне 2000 года. В народе название этого парка сокращают просто до «777» («Три семерки» или «Семерки»). На территории парка располагаются детский комплекс аттракционов и зона с игровыми элементами, многофункциональная площадка для игры с мячом, скейт-парк и кафе. Детская площадка была обновлена и спроектирована при помощи благотворительного фонда топ-модели Натальи Водяновой. В 2018 году она присутствовала на открытии этой зоны отдыха.;Парк им. 777-летия г. Н. Новгорода;2;;56.26264;43.875303
215;Нижний Новгород, ул. Пискунова, 40, корп. 1;POINT (44.01311 56.326386);Небольшой парк площадью чуть больше 2 га находится в самом сердце Нижнего Новгорода. Существующая территория парка — часть архиерейского сада, разбитого в 1706 году при основании Иоанновского монастыря. Еще раньше по территории парка проходил древний земляной вал, остатки которого сохранились на улице Пискунова. На сегодняшний день на территории есть детский городок, спортивная площадка с тренажерами, небольшая сцена-ракушка и ресторан «Джани», оказывающий существенную поддержку парку. Отдельного внимания заслуживает зеленый массив парка, состоящий из могучих деревьев и кустарников. У центрального входа растет огромное дерево вяза, много 100-летних лип и кленов, что свидетельствует о том, что этот парк является одним из старейших в городе.;Детский парк им. Я. М. Свердлова;2;;56.326386;44.01311
216;Нижний Новгород, улица Свободы, 1;POINT (43.86993 56.359774);Музей создан в 1967 году к 50-летию Октябрьской революции по инициативе совета ветеранов, партийного комитета, комитета комсомола и администрации завода. В 2004 году его объединили с заводским музеем подводного судостроения. Музейная экспозиция представлена большим количеством моделей судов и различной продукции завода, а также документами и фотографиями. Особое внимание уделено основателю завода — соучредителю компании Нижегородской машинной фабрики и Волжского буксирного и завозного пароходства — Дмитрию Бенардаки. В музее хранятся следующие реликвии — золотые медали престижных всемирных и всероссийских выставок, пять орденов СССР, Знамя Государственного Комитета Обороны СССР.;Музей истории завода «Красное Сормово»;7;;56.359774;43.86993
217;Нижний Новгород, историческая территория Старый Нижний Новгород;POINT (44.009465 56.332309);У подножья Чкаловской лестницы на берегу Волги на большом гранитном пьедестале расположен небольшой кораблик. Это катер «Герой» — памятник, установленный в честь моряков Волжской военной флотилии. Появился по инициативе ветеранов-речников в канун празднования 40-летнего юбилея Победы в мае 1985 года. Интересна его история. Буксир «Герой» трудился на Волге почти 100 лет. Существуют версии, по которым он участвовал в войнах Гражданской и Великой Отечественной, в том числе в боях с фашистскими захватчиками под Сталинградом. С 1967 года катер-ветеран в качестве музея боевой славы военного флота каждую навигацию отправлялся в рейс по Волге.;Катер Герой;1;;56.332309;44.009465
218;Нижний Новгород, ул. Коминтерна, 244;POINT (43.865322 56.35466);Кинотеатр был открыт 1 мая 1955 на центральной улице района. В первые майские дни «Буревестник» посетили около 10 тысяч сормовичей. Сегодня «Буревестник» — клуб с большими возможностями и ярким творческим потенциалом. Клуб, который сохранил лучшие кинематографические традиции и успешно развивает деятельность по проведению культурно-массовых, досуговых мероприятий для всех возрастных и социальных слоев населения. В «Буревестнике» ведут активную концертную и выставочную деятельность 13 творческих коллективов и студий для детей и взрослых.;Кинотеатр «Буревестник»;6;;56.35466;43.865322
219;Нижний Новгород, просп. Гагарина, 114;POINT (43.976678 56.269339);Центр культуры и кино «Зарница» основан 3 марта 1951 года в Ворошиловском районе города Горький. После переименования Ворошиловского района в Приокский кинотеатр приобрел название «Ока» и демонстрировал новинки и классику советского кинопроката. Со временем Приокский район развивался и рос, перед учреждениями культуры встала новая задача — обеспечение условий для культурного развития ребёнка вблизи от дома. Кинотеатр «Ока» активно включился в эту работу и преобразовался в детский специализированный кинотеатр «Зарница». Именно под этим названием он приобрел широкую известность. На базе кинотеатра проводились детские кинофестивали, организовывались киноклубы. Традиционно большое внимание уделялось военно-патриотическому и нравственному воспитанию. В 2016 году кинотеатр объединен с библиотечной системой Приокского района и приобрел статус центра культуры и кино с прежним именем «Зарница». Как и в прежние времена, здесь проводятся творческие встречи, выставки, демонстрируются развивающие фильмы и новинки современного, в приоритете русского, кинематографа для всех возрастов, а также организуются дни рождения, мастер-классы, дискотеки и разнообразные культурные активности.;Кинотеатр «Зарница»;6;;56.269339;43.976678
220;Нижний Новгород, Большая Покровская ул., 39А;POINT (43.996356 56.318603);"Кинотеатр «Орлёнок» открылся в 1980 году на месте старейшего и популярнейшего нижегородского кинотеатра «Палас», принявшего своих первых зрителей еще в 1912 году. «Орлёнок» расположен на центральной пешеходной улице Нижнего Новгорода Большой Покровской в здании, спроектированном знаменитым русским архитектором Ф. О. Шехтелем. На сегодняшний день кинотеатр специализируется на показе фильмов для детей и молодежи, в том числе по системе образовательных и воспитательных абонементов, а также фильмов направления «арт-хаус» в рамках проекта «НАСТОЯЩЕЕ КИНО» и в рубрике «Специальный показ». В «Орлёнке» также проходят фестивали европейского кино, организованные совместно с Французским культурным центром «Альянс Франсез — Нижний Новгород» и другими культурными представительствами; анимационные фестивали; фестивали короткометражного кино; выставки детского творчества; художественные и фото- выставки.";Кинотеатр «Орленок»;6;;56.318603;43.996356
221;г. Нижний Новгород, станция метро «Комсомольская»;POINT (43.889066 56.252239);Автор мозаики — Ким Шихов. Была создана в 1987 году. Входит в реестр произведений советского монументально-декоративного искусства Нижегородской области.;Мозаика «Даёшь Автозавод к 1932 г. »;10;;56.252239;43.889066
222;г. Нижний Новгород, ул. Юлиуса Фучика, д.1 ;POINT (43.86832 56.240863);Автор мозаики — Дмитрий Арсенин. Была создана в 1972 году. Входит в реестр произведений советского монументально-декоративного искусства Нижегородской области;Мозаика «Клуб юных автомобилистов»;10;;56.240863;43.86832
223;г. Нижний Новгород, ул. Ванеева, д. 84;POINT (44.034176 56.298822);Автор мозаики — Валентин Любимов. Была создана в 1966 году. Входит в реестр произведений советского монументально-декоративного искусства Нижегородской области.;Мозаика «Покорение неба»;10;;56.298822;44.034176
224;г. Нижний Новгород, станция метро «Чкаловская»;POINT (43.937072 56.311309);Автор мозаики — Валентин Любимов. Была создана в 1985 году. Входит в реестр произведений советского монументально-декоративного искусства Нижегородской области.;Панно «Перелёт Чкалова через Северный полюс»;10;;56.311309;43.937072
225;Нижний Новгород, улица 50-летия Победы, 25, помещение 1А;POINT (43.882085 56.32434);Музей был основан в 1976 г. как музей боевой и трудовой славы. С 1995 г. назывался «Музей истории и культуры Московского района». С этого времени началась активная выставочная и культурно-просветительская деятельность музея, и он становится одним из значительных культурных центров Нижнего Новгорода. Здесь открыты четыре постоянные экспозиции: этнографический и военный залы музея, выставка работ художника Валерия Бахматова и выставка, посвященная быту людей, живших в 50-е гг. ХХ в. Кроме этого, музей работает как выставочный комплекс, и с октября 2016 г. получает новое название «Музейно-выставочный центр «Микула». В музее проходят выставки живописи и графики, фотографии и декоративно-прикладного искусства, произведений классиков и авангардистов, тематические, персональные, групповые и концептуальные выставки, в рамках которых проводятся литературные вечера, творческие встречи с художниками, презентации, семинары, мастер-классы.;Музейно-выставочный центр «Микула»;7;;56.32434;43.882085
226;Нижний Новгород, ул. Дьяконова, 25А;POINT (43.887103 56.265313);Здание было построено в 1958 году в честь 40-летия комсомольской организации и получило назание «Дом культуры Ленинского комсомола». Строительство учреждения позволило организовать культурный досуг населения Северного поселка Автозаводсткого района. Центр продолжает быть любимым местом отдыха жителей. Сейчас здесь действует 14 творческих коллективов для детей и взрослых.;Центр культуры и досуга «Молодёжный»;6;;56.265313;43.887103
227;Зайцева улица, 7;POINT (43.801813 56.370786);"Центральная районная детская библиотека им. Н. А. Зайцева. Библиотека открылась в 1991 году. Входит в состав Централизованной библиотечной системы (ЦБС) Сормовского района г. Нижнего Новгорода. С 2013 года библиотека успешно функционирует как Центр поддержки детского чтения. Его работа направлена на повышение статуса книги, чтения, библиотеки. Своим читателям библиотека предлагает: - фонд качественной литературы; - книжные выставки, представляющие лучшие произведения для детей и подростков, интересные издательские новинки и книги авторов - лауреатов литературных конкурсов и премий; - мероприятия, направленные на развитие у детей навыков вдумчивого и творческого чтения, - встречи с поэтами и писателями, - консультативную помощь руководителям детского чтения (педагогам, родителям, библиотекарям) по использованию различных приемов и методов приобщения детей к чтению. В 1998 году в Центральной районной детской библиотеки им. Н. А. Зайцева открылась музейная экспозиция, посвященная жизни и деятельности талантливого инженера-конструктора Н. А. Зайцева, соратника выдающегося конструктора судов на подводных крыльях Р. Е. Алексеева. Фонд музейной экспозиции насчитывает более 600 экспонатов, собранных при поддержке сотрудников Центрального конструкторского бюро по судам на подводных крыльях им. Р. Е. Алексеева, родственников Н. А. Зайцева и Р. Е. Алексеева, ветеранов ЦКБ по СПК. Для своих посетителей музейная экспозиция предлагает: - тематические экскурсии по музейной экспозиции; - книжные выставки, посвященные Н. А. Зайцеву, Р. Е. Алексееву и их соратникам; - встречи с членами семьи Н. А. Зайцева и Р. Е. Алексеева и ветеранами АО «ЦКБ по СПК им. Р. Е. Алексеева»; - краеведческие мероприятия, посвященные выдающимся нижегородцам и их деятельности по созданию судов на - подводных крыльях и экранопланов; - детские творческие конкурсы. Библиотека является партнером городского проекта «Образовательный судостроительный кластер» (в проекте участвуют ПАО ""Завод ""Красное Сормово"", школы Сормовского района, ЦРДБ им. Н. А. Зайцева, инженерные вузы и техникумы города).";Центральная районная детская библиотека им. Н. А. Зайцева;6;;56.370786;43.801813
228;Культуры улица, 111;POINT (43.838947 56.344366);"Библиотека им. П. И. Мельникова-Печерского. Входит в состав Централизованной библиотечной системы (ЦБС) Сормовского района г. Нижнего Новгорода. В 2010 году получила статус Библиотечного краеведческого центра. Обладает одним из лучших в Сормовском районе фондом краеведческой литературы. История библиотеки началась в 1969 году, когда в доме № 29 по улице Федосеенко, она впервые распахнула свои двери для читателей всех возрастов. В 1971 году библиотеке было присвоено имя П. И. Мельникова-Печерского. Изучение и продвижение творческого наследия нижегородского писателя стало с этого времени приоритетным направлением работы. В 1980 году на улице Культуры, 111 построили новое здание, куда библиотека переехала и находится до настоящего времени. Если вам не безразлично будущее России, если вы хотите лучше узнать историю нашей страны - приходите в эту библиотеку и начните изучение родного края. Здесь вы можете: - найти уникальные сведения и материалы о Сормовском районе и Нижнем Новгороде; - встретиться с интересными людьми - нижегородскими поэтами, писателями, историками и краеведами; - познакомиться с выдающимися земляками в краеведческой студии ""Нижегородские параллели""; - стать участником различных краеведческих акций и конкурсов; - внести свой вклад в создание музейно-выставочной экспозиции ""Картинки Нижегородского быта XIX века"".";Библиотека им. П. И. Мельникова-Печерского;6;;56.344366;43.838947
229;ул. Дьяконова, 25;POINT (43.885603 56.264437);В библиотеке богатый фонд краеведческой литературы. Сотрудники выпускают собственные разработки в виде тематических папок, дайджестов, буклетов по истории, искусству, литературе, экологии нижегородского края и своего района. Для читателей открыт абонемент для взрослых, абонемент для детей, справочно-информационный зал, сектор краеведения, литературно-игровой зал.;Библиотека им. Ю. А. Адрианова;6;;56.264437;43.885603
230;ул. Мончегорская, 11а, корпус 3;POINT (43.830734 56.231708);"Граней изобразительного искусства немало. Одна из них – фотография. И на Автозаводе есть библиотека, которая держит в фокусе внимания этот вид творчества. Двери большого зала библиотеки им. Макаренко всегда открыты. Здесь можно познакомиться не только с фотовыставками из Русского музея фотографии, но и с авторами выставленных работ, узнать об истории создания снимков, побывать на встречах с известными фотохудожниками нашего города. Работает взрослый абонемент, детский абонемент, хобби-клуб, выставочный центр ""Объектив"" и литературно-игровой зал.";Библиотека им. А. С. Макаренко;6;;56.231708;43.830734
231;Движенцев, 7;POINT (43.849689 56.290584);"В 1958 году на основании Распоряжения №289 от 24. 06. 1958 в поселке Сортировочный была открыта музыкальная школа № 13 с контингентом учащихся 60 человек. Приказом №102 Горьковского Управления культуры от 30. 06. 1958 директором школы был назначен Лев Израилевич Долинский. Музыкальная школа располагалась в жилом доме по ул. Таллиннской и занимала площадь двух квартир на 1 этаже. Уже за первые годы существования школа приобрела большую популярность. Число желающих учиться музыке росло, но недостаток учебных помещений не позволял увеличивать число обучающихся. В 1967 году перед руководством школы остро встал вопрос о расширении помещения школы. И в 1968 году школа получила в свое распоряжение еще две освободившиеся квартиры и стала занимать весь первый этаж жилого дома. Это позволило увеличить контингент учащихся, штат преподавателей и расширить учебный план. В 1981 году школа переехала в новое здание, пристроенное к общеобразовательной школе № 75, с 22-мя классными комнатами, просторным залом, подсобными помещениями. Было приобретено большое количество музыкальных инструментов, мебели, появилась возможность расширить существовавшие отделения и открыть новые. С годами росло и техническое оснащение школы: аудио и видеотехника, фонотека, видеотека широко используется преподавателями в работе с детьми. За 65 лет своего существования школа выпустила более двух тысяч учащихся. Многие из них стали музыкантами-профессионалами, окончив музыкальное училище, консерваторию или музыкально-педагогический институт. Некоторые из них работали и работают в нашей школе. МБУ ДО ""ДМШ № 13"" осуществляет образовательную деятельность по двум видам дополнительных общеобразовательных программ: предпрофессиональным программам и общеразвивающим программам (фортепиано, скрипка, народные инструменты, духовые инструменты, хоровое пение, вокал эстрадный, вокал народный). В условиях значительного отдаления микрорайона от культурных очагов города музыкальная школа, наряду с ДК железнодорожников, стала центром эстетического воспитания детей. Обучение способствует развитию творческих способностей детей и взрослых, формированию культуры здорового и безопасного образа жизни, укреплению здоровья, обеспечивает их адаптацию к жизни в обществе, профессиональную ориентацию.";"МБУ ДО ""ДМШ № 13""";6;;56.290584;43.849689
232;ул. Прыгунова, 9;POINT (43.860989 56.233244);Для самых маленьких читателей открыта сенсорная комната, песочная анимация и ежедневные занятия с малышами в рамках цикла «Библионяня». На площадке библиотеки открыта выставка, посвященная Виталию Бианки — настоящая музейная комната с разнообразными экспонатами. Клубы и объединения в библиотеке: Родительский клуб «Мы – родители» для родителей Объединение по интересам «Заряд мудрости» для пенсионеров Объединение по интересам «Чтение плюс общение» для подростков Объединение по интересам «Читаем новое! » для детей 7-11 лет Творческая мастерская «Читаем. Думаем. Творим» для детей 7-12 лет Школа ЭКОагентов для детей 8-12 лет Мастерская «Зелёного чтения» для детей 7-9 лет;Детская библиотека им. В. В. Бианки;6;;56.233244;43.860989
233;Куйбышева улица, 13;POINT (43.912912 56.327605);Библиотека основана в 1964 году. Ведущая тема – нравственное воспитание. В библиотеке создан иллюстративный музей Героя Советского Союза Евгения Никонова. Структура библиотеки: абонемент, читальный зал, комната сказок. Дополнительные услуги для читателей: ксерокопирование, сканирование, распечатка с электронных носителей.;Детская библиотека — филиал №6 им. Е. А. Никонова;6;;56.327605;43.912912
234;Березовская улица, 96А;POINT (43.872317 56.329232);Библиотека основана в 1937 году. Основные направления деятельности библиотеки: — программа «Пушкиниана», в библиотеке создана Пушкинская гостиная — Авторская программа заведующей отделом обслуживания Н. И. Зотовой «Не замути родник здоровья» по предотвращению наркомании и девиантного поведения. В рамках Авторской программы реализуется проект «Преодоление» — правовое просвещение Ежегодно 6 июня в библиотеке и на площадке перед библиотекой проводится ПУШКИНСКИЙ ПРАЗДНИК. Дополнительные услуги для читателей: ксерокопирование, сканирование, поиск информации в сети Интернет, распечатка с дисков, флеш-носителей, ламинирование, подготовка и проведение электронных презентаций с использованием мультимедийного проектора, брошюрование, поиск законодательной информации в системе КонсультантПлюс, поиск информации в электронном каталоге и электронной картотеке статей, оформление учебных работ и других документов, набор текста.;Центральная районная библиотека им. А. С. Пушкина;6;;56.329232;43.872317
235;Родионова, 199, к.2;POINT (44.07901 56.300814);Центральная районная библиотека им. В. Г. Короленко — одна из старейших библиотек Нижнего Новгорода. Ее история начинается в конце XIX века. С 1921 года библиотека носит имя писателя и гуманиста В. Г. Короленко. Современное и уютное книжное пространство — по адресу улица Родионова, 199, к. 2 в Нижегородском районе — является постоянной точкой притяжения для нижегородцев всех возрастов. В просторных залах постоянно организуются конференции, фестивали, праздничные программы, встречи с интересными людьми, театрализованные представления и мастер-классы. Для проведения любого event-события библиотека располагает всем необходимым: аудио- и видеооборудование, 3D-принтер, голографические проекторы и многое другое. Выход организации за рамки традиционной библиотечной деятельности стал возможен благодаря реализации нескольких грантовых проектов, которые учитывали особенности территории, потребности целевой аудитории, социальные и культурные факторы. Вместе с нашими читателями и партнерами мы постоянно ищем культурные коды прошлого, настоящего и будущего.;"МКУК ""Централизованная библиотечная система"" Нижегородского района г. Н. Новгорода";6;;56.300814;44.07901
236;проспект Героев, 2;POINT (43.8965 56.31589);Библиотека основана в 1952 году. Все годы своего существования библиотека им. Н. Ф. Гастелло находится на проспекте Героев (ранее ул. Н. Гастелло), на первом этаже трехэтажного дома. Раньше библиотека называлась «Детская библиотека №2 Сталинского района». Библиотека им. Н. Ф. Гастелло — уютная, нарядная и красивая — центр притяжения детей с окрестных улиц. Коллектив библиотеки активно привлекает детей к участию в подготовке и проведении библиотечных мероприятий. Особенно плодотворно сотрудничество библиотеки с педагогическим коллективом и учащимися школы №64, ни одна проводимая библиотекой акция не проходит без их участия. Сотрудники же библиотеки — самые активные участники жизни ЦБС. Без них не обходятся ни межрайонные, ни городские, ни областные мероприятия. Структура библиотеки: младший абонемент, старший абонемент, читальный зал. Дополнительные услуги для читателей: ксерокопирование, распечатка с электронных носителей.;Детская библиотека — филиал №5 им. Н. Ф. Гастелло;6;;56.31589;43.8965
237;Буревестника улица, 9;POINT (43.879575 56.33296);Библиотека им. В. Г. Белинского была открыта в 1942 году в рабочем поселке Сормово. Разместили ее в помещении барачного типа. В 2002 году в рамках городской программы сохранения и развития библиотек в ЦРДБ им. В. Г. Белинского состоялся капитальный ремонт. Ежегодно в крупнейшей детской библиотеке района проводится более пятисот мероприятий для различных групп юных читателей. Ведущая тема: «Эстетическое воспитание». Структура библиотеки: младший абонемент, средний абонемент, старший абонемент, младший читальный зал, старший читальный зал, комната сказок. Дополнительные услуги для читателей: ксерокопирование, сканирование, поиск информации в сети Интернет, распечатка с электронных носителей, проведение электронных презентаций с использованием медиапроектора.;Центральная районная детская библиотека им. В. Г. Белинского;6;;56.33296;43.879575
238;ул. Космическая, 49;POINT (43.836393 56.221414);Взрослый абонемент предлагает читателям от 15 лет большой выбор отечественной и зарубежной художественной литературы: остросюжетные детективы, историческую прозу и мемуары, книги о любви, а также научно-популярную литературу по психологии и воспитанию детей, книги по рукоделию и садоводству. Детский абонемент – место для чтения и общения. Здесь юных читателей ждут произведения современных авторов и писателей-классиков, интересные познавательные энциклопедии, красочные книжные выставки, занимательные литературные игры и творческие конкурсы. Литературно-игровой зал «Книга +» – пространство для встречи друзей. Школьники могут сразиться в разнообразные настольные игры, просмотреть интерактивные книжки, принять участие в интеллектуальных турнирах, литературных баттлах и веселых спортивных состязаниях со своими сверстниками. Конференц-зал – площадка для проведения веселых праздников, мастер-классов, творческих вечеров, театрализованных спектаклей и встреч с любимыми писателями. В библиотеке для читателей работают клубы и объединения: Клуб «Солнышко на ладошках» (для детей в ОВЗ) Кружок «Уроки волшебства» Фотоателье «В объективе – библиотека» Театральный кружок «Новое поколение»;Детская библиотека им. К. М. Станюковича;6;;56.221414;43.836393
239;пос. Мостоотряд, 30;POINT (43.808869 56.200508);В библиотеке открыт взрослый и детский абонемент, а также центр «Тропинки радости», работа которого направлена на возрождение традиций православной культуры, приобщение к чтению художественной литературы основанной на православном мироощущении. Для читателей постоянно действуют книжные выставки с литературой духовно-нравственного содержания. В центре проводятся встречи со священниками, православными писателями и др. интересными людьми.;Библиотека им. А. Н. Радищева;6;;56.200508;43.808869
240;ул.Комсомольская,2;POINT (43.864358 56.252487);"Книжный фонд активно пополняется новинками литературы повышенного спроса (бестселлерами чтения). Частые гости библиотеки писатели, издатели, журналисты. Истинных ценителей литературы объединяет гостиная ""Литературная среда"". Формируя литературный вкус, популяризируя лучшие образцы мирового бестселлера, библиотека проводит традиционную ежегодную районную литературную викторину, обзоры, медиапрезентации, выставки-просмотры новых книг. В 2016 году в библиотеке родился новый проект совместно с Нижегородским театром юного зрителя ""Театр+книга"", где используя игровое театральное пространство и его методы, зрители и читатели приглашаются в книгу, вдохновляются на создание чего-то особенного, творческого, будь то любопытный образ, рисунок, стихотворение или текст!";Библиотека им. В. В. Маяковского;6;;56.252487;43.864358
241;Южное шоссе, 32а;POINT (43.866945 56.227395);Основной акцент в своей работе библиотека делает на сохранение национальной культуры. Ежегодно библиотекари рассказывают как взрослым, так и детям о русских праздниках, традициях. Для активных представителей серебряного возраста в библиотеке организован клуб «Лира». Доброй традицией библиотеки является ежегодное проведение новогодних игровых программ для детей из многодетных и малообеспеченных семей. Взрослый абонемент имеет зал художественной литературы и зал универсальной литературы. На детском абонементе есть игровая комната.;Библиотека им. Д. Н. Мамина-Сибиряка;6;;56.227395;43.866945
242;пр. Бусыгина, 45А;POINT (43.885289 56.270621);Ведущее направление -информационная и образовательная помощь семье. Здесь возможно интерактивное знакомство с книгами, работает литературная гостиная «Парус», есть специально оформленный уголок семейного чтения для молодых родителей с интересной подборкой книг по воспитанию детей. Представлена экспозиция, посвященная Михаилу Юрьевичу Лермонтову, имя которого носит библиотека. В одном из залов можно сфотографироваться с Лермонтовым-гусаром. Взрослый абонемент располагает универсальным фондом. В его составе художественная, отраслевая, справочная, учебная литература. К услугам читателей издания русской, советской и зарубежной классики, историческая проза, мемуары, фантастика, остросюжетные романы, детективы, книги о любви, а также произведения популярных современных авторов. Детский абонемент предлагает юным читателям, их родителям, руководителям детского чтения литературу по школьной программе, внеклассному чтению, воспитанию детей самого разного возраста. Справочный зал предоставляет пользователям богатый фонд справочной литературы:;Библиотека им. М. Ю. Лермонтова;6;;56.270621;43.885289
243;проспект Молодежный, 44б;POINT (43.838433 56.24448);"Основное направление библиотеки – популяризация здорового образа жизни. К услугам читателей взрослый и детский абонементы, служба «Информсервис» для оперативного обслуживания пользователей. Для детей всегда открыты двери литературно-игрового зала. Ежегодно в ""Библиотечно-досуговом центре"" проводятся крупные яркие мероприятия для маленьких и взрослых читателей, создаются перспективные программы развития библиотек. Именно отсюда начинается путь книги к читателям Автозаводского района.";"Центральная районная библиотека Автозаводского района ""Библиотечно-досуговый центр""";6;;56.24448;43.838433
244;Ярошенко улица, 19;POINT (43.852988 56.334339);"""Детская художественная школа №2"", г. Нижний Новгород. Основана в 1981 году. Располагается в двух помещениях - на ул. Ярошенко, 19, и на ул. Березовская, 111. За годы своего существования школа выпустила более 2000 учащихся. Около 1000 выпускников стали студентами художественных ВУЗов и ССУЗов.";"МБУ ДО ""ДХШ №2""";6;;56.334339;43.852988
245;Большая Покровская, 33;POINT (43.997776 56.319919);"Год основания – 1949 г. Находится в центре исторической части города Нижнего Новгорода на пешеходной улице Большой Покровской. Недалеко от Нижегородского кремля, театра драмы им. М. Горького и театра комедии, филармонии им. Мстислава Ростроповича. Контингент – 500 учащихся, обучающихся на семи отделениях: фортепианное, струнно-смычковое, народно-оркестровое, хоровое, духовых и ударных инструментов, сольного пения, театральное. В рамках образовательного процесса реализуются 12 образовательных программ: 8 предпрофессиональных и 3 общеразвивающие. В школе работают 67 преподавателей и концертмейстеров, из них: - 3 заслуженных работника культуры Российской Федерации; - 1 кандидат искусствоведения; - 2 победителя Общероссийского конкурса «Лучший преподаватель детской школы искусств» 2018 года и 2022 года. - 1 лауреат премии города Нижнего Новгорода; - 16 лауреатов международных и всероссийских конкурсов; - 71% имеют высшую и первую квалификационные категории. Учащиеся школы занимаются коллективным творчеством в 12 творческих коллективах. Из них два коллектива носят звание «Образцовый (народный) коллектив самодеятельного творчества» ( Концертный хор хорового отделения и театральный коллектив «FORTE»), оркестр русских народных инструментов получил звание «Заслуженный коллектив народного творчества». Коллектив школы, понимая свою высокую миссию сохранения лучших традиций музыкальной педагогики, постоянно работает над повышением качества образования. Вектор развития школы всегда направлен на профессиональное, академическое, а не развлекательное направление. Сегодня школа – центр методической и инновационной деятельности. Школа является инициатором и организатором двух исполнительских конкурсов, теоретической конференции. На базе школы создан и успешно функционирует Культурно-образовательный центр имени А. Д. Улыбышева. Программы центра рассчитаны на аудиторию от 5 лет без ограничения возраста. Основная цель центра – просвещение, знакомство с историей и культурой Нижегородского края, с судьбами хорошо известных и забытых соотечественников. Ежегодно преподавателями и учащимися проводится более 100 концертов для жителей города и области. Достижения школы: Почётный штандарт Губернатора Нижегородской области, Благодарственное письмо Правительства Нижегородской области, Диплом Министерства культуры Российской Федерации «Победителю Общероссийского конкурса «50 лучших детских школ искусств», Диплом Министерства культуры Российской Федерации «Победитель Всероссийского конкурса «Детские школы искусств достояние Российского государства";"МБУ ДО ""Детская школа искусств № 9 им. А. Д. Улыбышева""";6;;56.319919;43.997776
246;Чаадаева улица, 15;POINT (43.846769 56.33062);"Библиотека была создана в 1932 году при профсоюзном комитете Авиационного завода им. С. Орджоникидзе. Библиотека создавалась постепенно из книг, подаренных специалистами завода. Вероятно, вначале на заводе была одна библиотека, которая положила начало трем заводским библиотекам: библиотеке профкома, научно-технической библиотеке при БТИ и библиотеке парткома при партийном комитете Авиационного завода. Во время Великой Отечественной войны в фонд библиотеки поступили книги из личных собраний, вывезенные из блокадного Ленинграда; среди них редчайшие российские издания 19 — нач. 20 в. Ведущее направление работы: «В помощь местному самоуправлению» Самых активных читателей библиотеки объединяет клуб «Книгочей». Структура библиотеки: абонемент, читальный зал, музей редких книг, музей А. И. Люкина. Дополнительные услуги для читателей: ксерокопирование, распечатка с электронных носителей.";Библиотека — филиал № 8 им. А. И. Люкина;6;;56.33062;43.846769
247;Нижневолжская набережная, 14;POINT (43.990662 56.32995);"""Детская художественная школа №1"" ведет свое начало от «Бесплатных воскресных рисовальных классов», открытых Нижегородским Обществом любителей художеств 25 октября ( по старому стилю) 1902года. На всем своем долгом пути она никогда не прерывала своей деятельности. Все эти годы она готовила будущих художников, архитекторов, скульпторов и дизайнеров. Школа никогда не изменяла своему главному принципу, определяя своей целью профессиональное образование в области изобразительного искусства. Большое количество наших выпускников продолжили свое образование в лучших учебных заведениях России. В школе обучается 250 учеников на бюджетном отделении и 220 на основе самоокупаемости. В школе учатся не только дети в возрасте от 6 до 17 лет, но и взрослое население города. Школа располагается в здании памятнике культуры регионального значения ""Дом Бугрова"".";"МБУ ДО ""Детская художественная школа №1""";6;;56.32995;43.990662
248;Березовская улица, 10;POINT (43.884867 56.317288);Библиотека создана путем слияния Юношеской библиотеки и библиотеки им. А. Н. Толстого в помещение бывшей центральной библиотеки им. А. С. Пушкина в 1988 году. В библиотеке работает клуб «Открытая книга». Основное направление деятельности: продвижение литературы и организация досуга. Основные цели и задачи — способствовать раскрытию творческого потенциала, предоставление возможности неформального общения и обмена опытом, а также поддерживать читательскую культуру и формировать у членов клуба интерес к лучшим образцам отечественной и зарубежной литературы. Проводимые мероприятия разнообразны по тематике: ЗОЖ, противодействие наркомании, алкоголизма и табакокурения, патриотическое воспитанию, мастер–классы. Структура библиотеки: абонемент, читальный зал. Дополнительные услуги для читателей: ксерокопирование, распечатка с электронных носителей.;Библиотека — филиал №4 им. А. Н. Толстого;6;;56.317288;43.884867
249;Героя Давыдова улица, 15;POINT (43.86858 56.324706);Библиотека основана в 1950 году. Библиотека им. Н. К. Крупской — одна из наиболее стабильно работающих в Централизованной библиотечной системе Московского района города Нижнего Новгорода. Высокопрофессиональный коллектив трудится в одной библиотеке на протяжении многих лет. Неоднократно работа библиотеки представлялась на городские конкурсы, сотрудники библиотеки выступали с обменом опытом на различных методических мероприятиях. Библиотека является Районным центром краеведческой информации. В центре собрана полная (в том числе на электронных носителях) информация о Московском районе. Библиотека располагает уникальным фондом литературы о районах Нижегородской области. Выпускает информационно-библиографические пособия. Структура библиотеки: абонемент, читальный зал Дополнительные услуги для читателей: ксерокопирование, сканирование, распечатка с электронных носителей.;Библиотека — филиал №3 им. Н. К. Крупской;6;;56.324706;43.86858
250;Мечникова улица, 73А;POINT (43.833052 56.336962);Библиотека основана в 1955 году. На самых старых книгах библиотеки им. П. А. Заломова можно найти два вида штампов: «Кооперативная библиотека» или «Библиотека Кооперативного поселка». Этот поселок находился на границе Московского и Сормовского районов. А на одной из раритетных книг стоит штамп «Эвакуационный госпиталь №2811». Во время Великой Отечественной войны госпиталь размещался в помещении школы №93. В 1977 году для библиотеки было выделено помещение в пристрое к дому №73 по ул. Мечникова, где она находится и сейчас. Структура библиотеки: абонемент, читальный зал. Дополнительные услуги для читателей: ксерокопирование, распечатка с электронных носителей.;Библиотека — филиал №2 им. П. А. Заломова;6;;56.336962;43.833052
251;улица Космонавта Комарова, 4;POINT (43.932989 56.279532);Детская школа искусств № 4 — это мир музыки, искусства, длиною более 70 лет. Свои двери школа распахнула в 1947 году. За эти годы она прошла большой путь — от музыкального кружка Дома художественного воспитания детей города Горького до школы искусств, стала одним из центров музыкального и эстетического образования Ленинского района города Нижнего Новгорода. Директорами школы в разные годы были А. А. Трифонова, А. П. Карпов, А. П. Батуков, В. А. Савинов, В. Т. Изюмов, П. А. Паламодов, И. Е. Королева, Н. Л. Ильина. В настоящее время школой руководит заслуженный работник культуры РФ Т. Е. Форшток. Обучение ведется на отделениях: фортепианном, струнно-смычковом, народных и духовых инструментов, вокальном, хоровом, хореографическом и общеэстетическом. Гордостью школы является образцовый ансамбль русских народных инструментов «Тальянка». Лауреатами и участниками многочисленных фестивалей, концертов на протяжении многих лет являются Оркестр русских народных инструментов, ансамбль гитаристов, старший и младший хоры. Педагогический коллектив школы всегда отличал высокий профессионализм, бережное отношение к традициям музыкального образования. Особая благодарность выражается преподавателям прошлых лет. Безграничная преданность своему делу, любовь к детям создали ту особую атмосферу творчества и доброжелательности, которую сохраняет нынешнее поколение педагогов.;"МБУ ДО ""ДШИ № 4""";6;;56.279532;43.932989
252;ул. Заломова, д.20;POINT (43.981460571 56.321300507);"""Детская школа искусств им. Д. Д. Шостаковича"" - одна из ведущих школ искусств в г. Нижнем Новгороде. Здесь работают высококвалифицированные, преданные своему делу преподаватели, люди неравнодушные и заинтересованные, представляющие единый творческий коллектив. Школа реализует дополнительные предпрофессиональные программы в области музыкального искусства «Фортепиано», «Струнные инструменты», «Народные инструменты», «Духовые и ударные инструменты», «Хоровое пение», соответствующие Федеральным государственным требованиям к минимуму содержания, структуре и условиям реализации дополнительных предпрофессиональных общеобразовательных программ в области музыкального искусства, а также общеразвивающие программы. Учащиеся МБУ ДО «ДШИ им. Д. Д. Шостаковича» ежегодно становятся лауреатами и дипломантами областных, региональных, всероссийских и международных музыкальных фестивалей, конкурсов и олимпиад. Многие наши выпускники продолжают свое обучение в лучших отечественных и мировых средних и высших профессиональных учебных заведениях. Творческий подход преподавателей, преемственность педагогических традиций определяют качество музыкального образования в Детской школе искусств им. Д. Д. Шостаковича г. Нижнего Новгорода.";"МБУ ДО ""Детская школа искусств им. Д. Д. Шостаковича""";6;;56.321300507;43.981460571
253;Куйбышева улица, 11;POINT (43.912535 56.326962);Библиотека им. А. И. Герцена создана летом 1949 года в поселке Бурнаковка. Изначально библиотека размещалась в одноэтажном деревянном бараке с печным отоплением и занимала площадь 114 кв. м. В 1960 году библиотека переехала в новое здание по ул. Куйбышева д. 11, где и находится в настоящее время. В 1973 г. прошла централизация библиотек Сормовского района. В 1977 году микрорайон 17-го квартала был передан Московскому району и библиотека стала крупнейшим филиалом ЦБС Московского района. Библиотека им. А. И. Герцена давно и плодотворно сотрудничает со школами №149 и №21. Учащиеся и педагоги этих школ — постоянные участники библиотечных мероприятий. Здесь часто проводятся встречи с литераторами и поэтами, ветеранами Великой Отечественной войны. Структура библиотеки: абонемент, читальный зал, музей культуры и быта русского народа. В ноябре 2019 года состоялось открытие музейной экспозиции «О жизни поэтической строкой», посвященной нижегородскому поэту, лауреату премии Нижнего Новгорода, заслуженному учителю России, члену Союза журналистов России Борису Николаевичу Жукову. Ведущая тема: «Путь к себе: возрождение русской духовности» При библиотеке работают клубы «Русские Веды», «Книгочей», «Оптимист» и литературное объединение «Среда поэта». Дополнительные услуги для читателей: ксерокопирование, сканирование, поиск Информации в сети Интернет, распечатка с электронных носителей.;Библиотека — филиал № 1 им. А. И. Герцена;6;;56.326962;43.912535
254;улица Адмирала Васюнина, дом 1, корпус 1;POINT (44.036466 56.297418);Библиотека начала комплектоваться 2 декабря 1968 года, в помещении бывшей школы № 24 (ул. Агрономическая). В 1969 году библиотека получила помещение по ул. Васюнина, 1/1 и приняла первых читателей, а имя поэта Бориса Петровича Корнилова было присвоено ей 1 сентября 1969 года.;Библиотека им. Б. Корнилова;6;;56.297418;44.036466
255;Академика Б.А. Королёва бульвар, 10;POINT (44.031777 56.2828);В 1970 году, на основании приказа №185 по городскому Управлению культуры, по ул. Нартова, д. 1 выделено помещение для юношеской библиотеки Советского района. Зав. библиотекой назначена Ипполитова Елена Фёдоровна. 4 июля 1970 года юношеской городской библиотеке было присвоено имя Героя Советского Союза, лётчика - нижегородца Бориса Владимировича Панина. 25 августа 1970 года библиотека была торжественно открыта матерью героя - Серафимой Андреевной Паниной. 26 сентября 1975 года был издан приказ Городского управления культуры об организации опорной библиотеки Советского района им. Б. Панина. В 1978 году произошла централизация библиотек Советского района. Библиотека им. Б. Панина стала Центральной районной библиотекой. В 2000 году ЦРБ им. Б. Панина переместилась на ул. Ломоносова, 15. В 2017 году здание по ул. Ломоносова, 15 было признано аварийным и библиотека получила помещение по адресу: бульвар Академика Королева Б. А. , 10.;Центральная районная библиотека им. Бориса Панина;6;;56.2828;44.031777
256;улица Адмирала Нахимова, 1Б;POINT (43.922183 56.269171);"В деятельность дирекции входят вопросы содержания и благоустройства городских парков, закрепленных за учреждением. Кроме того, дирекция проводит культурно-массовые мероприятия (государственные праздники, фестивали, ярмарки, концерты, квесты, кинопоказы, спортивные занятия), а также развивает предпринимательскую деятельность и активно сотрудничает с бизнесом (размещение нестационарных торговых объектов и аттракционов, предоставление в аренду площадок, проведение промо-акций, организация мероприятий на партнёрских условиях). Список территорий, находящихся в управлении учреждения: - парк ""Светлоярский""; - зона отдыха ""Щелоковский хутор""; - парк ""Дубки""; - парк Станкозавода; - парк им. Я. М. Свердлова; - Автозаводский парк; - парк им. 777-летия Нижнего Новгорода; - первое парковое озеро (Земснаряд-1); - второе парковое озеро (Земснаряд-2). В своей работе дирекция всегда открыта диалогу с жителями города. Планируя развитие, учреждение опирается на принципы сохранения и улучшения социальной, культурной и экологической обстановки в нашем городе. Парковые пространства — это зоны особого внимания жителей города, поэтому коллектив прикладывает все усилия для улучшения репутационного образа парков в глазах посетителей.";"МАУК ""Дирекция парков и скверов г. Нижнего Новгорода""";6;;56.269171;43.922183
257;г. Нижний Новгород, пр. Ленина, 14;POINT (43.93588 56.29496);Центральная районная библиотека им. Д. А. Фурманова была основана в ноябре 1951 года. Ежегодно около 7, 5 тысяч жителей Ленинского района становятся ее читателями. Фонд библиотеки составляет свыше 49 тыс. экземпляров книг, журналов и газет. К услугам читателей: интернет, СПС «Консультант Плюс», выдача электронных и аудиокниг, электронная библиотека «ЛитРес». Ведущим направлением работы является нравственно-эстетическое, духовное просвещение, приобщение читателей к великому миру искусства. В ЦРБ им Фурманова для школьников и молодежи действуют клуб «Школьные годы» и лекторий «В мире прекрасного». С 1986 года в библиотеке действует Общественный совет творческой интеллигенции и литературно-музыкальная гостиная «Светёлка», на заседании которой собираются поэты, писатели, художники, музыканты. Не забыты и пожилые люди. Для них совместно с районным Советом ветеранов войны и труда был организован клуб «Литературный огонек» для общения и отдыха пожилых людей. В рамках районной программы «Я – гражданин своего государства» при участии территориальной избирательной комиссии Ленинского района в 2008 году был создан клуб «Молодой избиратель».;Центральная районная библиотека им. Д. А. Фурманова;6;;56.29496;43.93588
258;г. Нижний Новгород, станция метро «Заречная»;POINT (43.927694 56.284257);Авторы мозаики — Татьяна и Валерий Гришины. Была создана в 1985 году. Входит в реестр произведений советского монументально-декоративного искусства Нижегородской области;Керамическое панно «Юность»;10;;56.284257;43.927694
